{
"type": "FeatureCollection",
"name": "poi_muc_uni_fh",
"crs": { "type": "name", "properties": { "name": "urn:ogc:def:crs:OGC:1.3:CRS84" } },
"features": [
{ "type": "Feature", "properties": { "full_id": "n262609293", "osm_id": "262609293", "osm_type": "node", "check_date:opening_hours": null, "operator:wikipedia": null, "operator:wikidata": null, "level:ref": null, "level": null, "opening_hours": null, "contact:mobile": null, "fax": null, "brand:wikidata": null, "religion": null, "name:zh": null, "name:es": null, "short_name": null, "roof:shape": null, "loc_name": null, "full_name": null, "alt_website": null, "wikidata": null, "name:en": null, "name:de": null, "internet_access:ssid": null, "education": null, "fee": null, "contact:fax": null, "topic": null, "contact:email": null, "contact:phone": null, "description": null, "email": null, "wikipedia": null, "addr:housename": null, "wheelchair:description": null, "operator:type": null, "operator": null, "toilets:wheelchair": null, "internet_access:fee": null, "internet_access": null, "contact:website": null, "wheelchair": "yes", "website": "https://www.mvhs.de/", "phone": "+49 89 480066868", "name": "Münchner Volkshochschule Stadtbereichszentrum Nord", "college": "adult_education", "check_date": "2025-09-02", "amenity": "college", "addr:street": "Troppauer Straße", "addr:postcode": "80937", "addr:housenumber": "10", "addr:country": "DE", "addr:city": "München" }, "geometry": { "type": "Point", "coordinates": [ 11.5737321, 48.1949477 ] } },
{ "type": "Feature", "properties": { "full_id": "n283031238", "osm_id": "283031238", "osm_type": "node", "check_date:opening_hours": null, "operator:wikipedia": null, "operator:wikidata": null, "level:ref": null, "level": null, "opening_hours": null, "contact:mobile": null, "fax": null, "brand:wikidata": null, "religion": null, "name:zh": null, "name:es": null, "short_name": null, "roof:shape": null, "loc_name": null, "full_name": null, "alt_website": null, "wikidata": null, "name:en": null, "name:de": null, "internet_access:ssid": null, "education": null, "fee": null, "contact:fax": null, "topic": null, "contact:email": null, "contact:phone": null, "description": null, "email": null, "wikipedia": null, "addr:housename": null, "wheelchair:description": null, "operator:type": null, "operator": null, "toilets:wheelchair": null, "internet_access:fee": null, "internet_access": null, "contact:website": "https://www.physik.lmu.de/de/index.html", "wheelchair": "yes", "website": null, "phone": null, "name": "Fakultät für Physik", "college": null, "check_date": "2024-11-21", "amenity": "university", "addr:street": null, "addr:postcode": null, "addr:housenumber": null, "addr:country": null, "addr:city": null }, "geometry": { "type": "Point", "coordinates": [ 11.5795225, 48.1494272 ] } },
{ "type": "Feature", "properties": { "full_id": "n283031240", "osm_id": "283031240", "osm_type": "node", "check_date:opening_hours": null, "operator:wikipedia": null, "operator:wikidata": null, "level:ref": null, "level": null, "opening_hours": null, "contact:mobile": null, "fax": null, "brand:wikidata": null, "religion": null, "name:zh": null, "name:es": null, "short_name": null, "roof:shape": null, "loc_name": null, "full_name": null, "alt_website": null, "wikidata": null, "name:en": null, "name:de": null, "internet_access:ssid": null, "education": null, "fee": null, "contact:fax": null, "topic": null, "contact:email": null, "contact:phone": null, "description": null, "email": null, "wikipedia": null, "addr:housename": null, "wheelchair:description": null, "operator:type": null, "operator": null, "toilets:wheelchair": null, "internet_access:fee": "customers", "internet_access": "wlan", "contact:website": null, "wheelchair": "yes", "website": "https://www.jura.lmu.de/de/index.html", "phone": null, "name": "Juristisches Seminar", "college": null, "check_date": null, "amenity": "university", "addr:street": "Professor-Huber-Platz", "addr:postcode": "80539", "addr:housenumber": "2", "addr:country": null, "addr:city": "München" }, "geometry": { "type": "Point", "coordinates": [ 11.5824286, 48.1508643 ] } },
{ "type": "Feature", "properties": { "full_id": "n300673921", "osm_id": "300673921", "osm_type": "node", "check_date:opening_hours": null, "operator:wikipedia": null, "operator:wikidata": null, "level:ref": null, "level": null, "opening_hours": null, "contact:mobile": null, "fax": null, "brand:wikidata": null, "religion": null, "name:zh": null, "name:es": null, "short_name": null, "roof:shape": null, "loc_name": null, "full_name": null, "alt_website": null, "wikidata": null, "name:en": null, "name:de": null, "internet_access:ssid": null, "education": null, "fee": null, "contact:fax": null, "topic": null, "contact:email": null, "contact:phone": null, "description": null, "email": null, "wikipedia": null, "addr:housename": null, "wheelchair:description": null, "operator:type": null, "operator": null, "toilets:wheelchair": null, "internet_access:fee": null, "internet_access": null, "contact:website": null, "wheelchair": null, "website": null, "phone": "+49 89 48006-6910", "name": "Volkshochschule München Perlach-Süd", "college": "adult_education", "check_date": "2025-04-28", "amenity": "college", "addr:street": "Max-Reinhardt-Weg", "addr:postcode": "81739", "addr:housenumber": "29", "addr:country": "DE", "addr:city": "München" }, "geometry": { "type": "Point", "coordinates": [ 11.6390183, 48.0907716 ] } },
{ "type": "Feature", "properties": { "full_id": "n563851080", "osm_id": "563851080", "osm_type": "node", "check_date:opening_hours": null, "operator:wikipedia": null, "operator:wikidata": null, "level:ref": null, "level": null, "opening_hours": null, "contact:mobile": null, "fax": null, "brand:wikidata": null, "religion": null, "name:zh": null, "name:es": null, "short_name": null, "roof:shape": null, "loc_name": null, "full_name": null, "alt_website": null, "wikidata": null, "name:en": null, "name:de": null, "internet_access:ssid": null, "education": null, "fee": null, "contact:fax": null, "topic": null, "contact:email": null, "contact:phone": null, "description": null, "email": null, "wikipedia": null, "addr:housename": null, "wheelchair:description": null, "operator:type": null, "operator": null, "toilets:wheelchair": "yes", "internet_access:fee": null, "internet_access": null, "contact:website": null, "wheelchair": "yes", "website": null, "phone": "+49 89 48006-6730", "name": "Münchner Volkshochschule Stadtbereichszentrum Süd", "college": "adult_education", "check_date": "2026-05-18", "amenity": "college", "addr:street": "Albert-Roßhaupter-Straße", "addr:postcode": "81369", "addr:housenumber": "8", "addr:country": "DE", "addr:city": "München" }, "geometry": { "type": "Point", "coordinates": [ 11.5377996, 48.1171545 ] } },
{ "type": "Feature", "properties": { "full_id": "n582614550", "osm_id": "582614550", "osm_type": "node", "check_date:opening_hours": null, "operator:wikipedia": null, "operator:wikidata": null, "level:ref": null, "level": null, "opening_hours": null, "contact:mobile": null, "fax": null, "brand:wikidata": null, "religion": null, "name:zh": null, "name:es": null, "short_name": null, "roof:shape": null, "loc_name": null, "full_name": null, "alt_website": null, "wikidata": null, "name:en": null, "name:de": null, "internet_access:ssid": null, "education": null, "fee": null, "contact:fax": null, "topic": null, "contact:email": null, "contact:phone": null, "description": null, "email": null, "wikipedia": null, "addr:housename": null, "wheelchair:description": null, "operator:type": null, "operator": null, "toilets:wheelchair": null, "internet_access:fee": null, "internet_access": null, "contact:website": null, "wheelchair": "yes", "website": null, "phone": null, "name": "Münchner Volkshochschule", "college": "adult_education", "check_date": "2026-05-27", "amenity": "college", "addr:street": "Schlierseestraße", "addr:postcode": "81539", "addr:housenumber": "47", "addr:country": "DE", "addr:city": "München" }, "geometry": { "type": "Point", "coordinates": [ 11.5934793, 48.1131782 ] } },
{ "type": "Feature", "properties": { "full_id": "n662495324", "osm_id": "662495324", "osm_type": "node", "check_date:opening_hours": null, "operator:wikipedia": null, "operator:wikidata": null, "level:ref": null, "level": null, "opening_hours": null, "contact:mobile": null, "fax": null, "brand:wikidata": null, "religion": null, "name:zh": null, "name:es": null, "short_name": null, "roof:shape": null, "loc_name": null, "full_name": null, "alt_website": null, "wikidata": null, "name:en": null, "name:de": null, "internet_access:ssid": null, "education": null, "fee": null, "contact:fax": null, "topic": null, "contact:email": null, "contact:phone": null, "description": null, "email": null, "wikipedia": null, "addr:housename": null, "wheelchair:description": null, "operator:type": null, "operator": null, "toilets:wheelchair": null, "internet_access:fee": null, "internet_access": null, "contact:website": null, "wheelchair": null, "website": "https://www.mvhs.de/ueber-uns/standorte/stadtbereich-sued", "phone": "+49 89 480066890", "name": "Münchner Volkshochschule", "college": "adult_education", "check_date": null, "amenity": "college", "addr:street": "Forstenrieder Allee", "addr:postcode": "81476", "addr:housenumber": "61", "addr:country": "DE", "addr:city": "München" }, "geometry": { "type": "Point", "coordinates": [ 11.4990378, 48.0940275 ] } },
{ "type": "Feature", "properties": { "full_id": "n933541147", "osm_id": "933541147", "osm_type": "node", "check_date:opening_hours": null, "operator:wikipedia": null, "operator:wikidata": null, "level:ref": null, "level": null, "opening_hours": null, "contact:mobile": null, "fax": null, "brand:wikidata": null, "religion": null, "name:zh": null, "name:es": null, "short_name": null, "roof:shape": null, "loc_name": null, "full_name": null, "alt_website": null, "wikidata": null, "name:en": null, "name:de": null, "internet_access:ssid": null, "education": null, "fee": null, "contact:fax": null, "topic": null, "contact:email": null, "contact:phone": null, "description": null, "email": null, "wikipedia": null, "addr:housename": null, "wheelchair:description": null, "operator:type": null, "operator": null, "toilets:wheelchair": "yes", "internet_access:fee": null, "internet_access": null, "contact:website": null, "wheelchair": "yes", "website": null, "phone": null, "name": "Sprachen & Dolmetscher Institut München e. V.", "college": null, "check_date": null, "amenity": "college", "addr:street": "Baierbrunner Straße", "addr:postcode": "81379", "addr:housenumber": "28", "addr:country": "DE", "addr:city": "München" }, "geometry": { "type": "Point", "coordinates": [ 11.5321306, 48.0968564 ] } },
{ "type": "Feature", "properties": { "full_id": "n994492350", "osm_id": "994492350", "osm_type": "node", "check_date:opening_hours": null, "operator:wikipedia": null, "operator:wikidata": null, "level:ref": null, "level": null, "opening_hours": null, "contact:mobile": null, "fax": null, "brand:wikidata": null, "religion": null, "name:zh": null, "name:es": null, "short_name": null, "roof:shape": null, "loc_name": null, "full_name": null, "alt_website": null, "wikidata": null, "name:en": null, "name:de": null, "internet_access:ssid": null, "education": null, "fee": null, "contact:fax": null, "topic": null, "contact:email": null, "contact:phone": null, "description": null, "email": null, "wikipedia": null, "addr:housename": null, "wheelchair:description": null, "operator:type": null, "operator": "LMU", "toilets:wheelchair": null, "internet_access:fee": null, "internet_access": null, "contact:website": null, "wheelchair": null, "website": "https://www.carsoncenter.uni-muenchen.de/", "phone": null, "name": "Rachel Carson Center for Environment and Society", "college": null, "check_date": null, "amenity": "university", "addr:street": "Leopoldstraße", "addr:postcode": "80802", "addr:housenumber": "11a", "addr:country": "DE", "addr:city": "München" }, "geometry": { "type": "Point", "coordinates": [ 11.5828079, 48.1550515 ] } },
{ "type": "Feature", "properties": { "full_id": "n1041089943", "osm_id": "1041089943", "osm_type": "node", "check_date:opening_hours": null, "operator:wikipedia": null, "operator:wikidata": null, "level:ref": null, "level": null, "opening_hours": null, "contact:mobile": null, "fax": null, "brand:wikidata": null, "religion": null, "name:zh": null, "name:es": null, "short_name": null, "roof:shape": null, "loc_name": null, "full_name": null, "alt_website": null, "wikidata": null, "name:en": null, "name:de": null, "internet_access:ssid": null, "education": null, "fee": null, "contact:fax": null, "topic": null, "contact:email": null, "contact:phone": null, "description": null, "email": null, "wikipedia": null, "addr:housename": null, "wheelchair:description": null, "operator:type": null, "operator": null, "toilets:wheelchair": null, "internet_access:fee": null, "internet_access": null, "contact:website": null, "wheelchair": null, "website": null, "phone": null, "name": "Münchner Volkshochschule Stadtteilzentrum Freimann", "college": "adult_education", "check_date": "2025-09-13", "amenity": "college", "addr:street": null, "addr:postcode": null, "addr:housenumber": null, "addr:country": null, "addr:city": null }, "geometry": { "type": "Point", "coordinates": [ 11.6004143, 48.2052148 ] } },
{ "type": "Feature", "properties": { "full_id": "n1078797624", "osm_id": "1078797624", "osm_type": "node", "check_date:opening_hours": null, "operator:wikipedia": null, "operator:wikidata": null, "level:ref": null, "level": null, "opening_hours": null, "contact:mobile": null, "fax": null, "brand:wikidata": null, "religion": null, "name:zh": null, "name:es": null, "short_name": null, "roof:shape": null, "loc_name": null, "full_name": null, "alt_website": null, "wikidata": null, "name:en": null, "name:de": null, "internet_access:ssid": null, "education": null, "fee": null, "contact:fax": null, "topic": null, "contact:email": null, "contact:phone": null, "description": null, "email": null, "wikipedia": null, "addr:housename": null, "wheelchair:description": null, "operator:type": null, "operator": null, "toilets:wheelchair": null, "internet_access:fee": null, "internet_access": "wlan", "contact:website": null, "wheelchair": null, "website": null, "phone": null, "name": "Münchner Volkshochschule Seidlvilla Schwabing", "college": "adult_education", "check_date": null, "amenity": "college", "addr:street": "Nikolaiplatz", "addr:postcode": "80802", "addr:housenumber": "1b", "addr:country": "DE", "addr:city": "München" }, "geometry": { "type": "Point", "coordinates": [ 11.5875304, 48.1583824 ] } },
{ "type": "Feature", "properties": { "full_id": "n1128197050", "osm_id": "1128197050", "osm_type": "node", "check_date:opening_hours": null, "operator:wikipedia": null, "operator:wikidata": null, "level:ref": null, "level": null, "opening_hours": null, "contact:mobile": null, "fax": null, "brand:wikidata": null, "religion": null, "name:zh": null, "name:es": null, "short_name": null, "roof:shape": null, "loc_name": null, "full_name": null, "alt_website": null, "wikidata": null, "name:en": null, "name:de": null, "internet_access:ssid": null, "education": null, "fee": null, "contact:fax": null, "topic": null, "contact:email": null, "contact:phone": null, "description": null, "email": null, "wikipedia": null, "addr:housename": null, "wheelchair:description": null, "operator:type": "private", "operator": "FOM Hochschule für Oekonomie & Management gemeinnützige Gesellschaft mbH", "toilets:wheelchair": "yes", "internet_access:fee": null, "internet_access": "wlan", "contact:website": null, "wheelchair": "yes", "website": "https://www.fom.de/de/Hochschulzentrum/muenchen.html", "phone": null, "name": "FOM Hochschule für Oekonomie & Management", "college": null, "check_date": "2024-12-24", "amenity": "college", "addr:street": "Arnulfstraße", "addr:postcode": "80335", "addr:housenumber": "32", "addr:country": "DE", "addr:city": "München" }, "geometry": { "type": "Point", "coordinates": [ 11.5553422, 48.1425373 ] } },
{ "type": "Feature", "properties": { "full_id": "n1383696769", "osm_id": "1383696769", "osm_type": "node", "check_date:opening_hours": null, "operator:wikipedia": null, "operator:wikidata": null, "level:ref": null, "level": null, "opening_hours": null, "contact:mobile": null, "fax": null, "brand:wikidata": null, "religion": null, "name:zh": null, "name:es": null, "short_name": null, "roof:shape": null, "loc_name": null, "full_name": null, "alt_website": null, "wikidata": null, "name:en": null, "name:de": null, "internet_access:ssid": null, "education": null, "fee": null, "contact:fax": null, "topic": null, "contact:email": null, "contact:phone": null, "description": null, "email": null, "wikipedia": null, "addr:housename": null, "wheelchair:description": null, "operator:type": null, "operator": "Ludwig-Maximilians-Universität", "toilets:wheelchair": null, "internet_access:fee": null, "internet_access": null, "contact:website": null, "wheelchair": null, "website": null, "phone": null, "name": "Graduiertenschule für Ost- und Südosteuropastudien", "college": null, "check_date": null, "amenity": "university", "addr:street": "Maria-Theresia-Straße", "addr:postcode": "81675", "addr:housenumber": "21", "addr:country": null, "addr:city": "München" }, "geometry": { "type": "Point", "coordinates": [ 11.5987673, 48.1430668 ] } },
{ "type": "Feature", "properties": { "full_id": "n1788324310", "osm_id": "1788324310", "osm_type": "node", "check_date:opening_hours": null, "operator:wikipedia": null, "operator:wikidata": null, "level:ref": null, "level": null, "opening_hours": null, "contact:mobile": null, "fax": null, "brand:wikidata": null, "religion": null, "name:zh": null, "name:es": null, "short_name": null, "roof:shape": null, "loc_name": null, "full_name": null, "alt_website": null, "wikidata": null, "name:en": null, "name:de": null, "internet_access:ssid": null, "education": null, "fee": null, "contact:fax": null, "topic": null, "contact:email": null, "contact:phone": null, "description": null, "email": null, "wikipedia": null, "addr:housename": null, "wheelchair:description": "Toilette nicht Rollstuhlgeeignet", "operator:type": null, "operator": null, "toilets:wheelchair": null, "internet_access:fee": null, "internet_access": null, "contact:website": null, "wheelchair": "limited", "website": null, "phone": null, "name": "Lehrinstitut Bencic", "college": null, "check_date": null, "amenity": "college", "addr:street": "Geisenhausenerstraße", "addr:postcode": "81379", "addr:housenumber": "17", "addr:country": "DE", "addr:city": "München" }, "geometry": { "type": "Point", "coordinates": [ 11.5207596, 48.0966597 ] } },
{ "type": "Feature", "properties": { "full_id": "n2351318699", "osm_id": "2351318699", "osm_type": "node", "check_date:opening_hours": null, "operator:wikipedia": null, "operator:wikidata": null, "level:ref": null, "level": null, "opening_hours": null, "contact:mobile": null, "fax": null, "brand:wikidata": null, "religion": null, "name:zh": null, "name:es": null, "short_name": null, "roof:shape": null, "loc_name": null, "full_name": null, "alt_website": null, "wikidata": null, "name:en": null, "name:de": null, "internet_access:ssid": null, "education": null, "fee": null, "contact:fax": null, "topic": null, "contact:email": null, "contact:phone": null, "description": null, "email": null, "wikipedia": null, "addr:housename": "J", "wheelchair:description": null, "operator:type": null, "operator": null, "toilets:wheelchair": null, "internet_access:fee": null, "internet_access": "yes", "contact:website": null, "wheelchair": null, "website": "https://www.hdbw-hochschule.de/", "phone": null, "name": "Hochschule der Bayerischen Wirtschaft", "college": null, "check_date": null, "amenity": "university", "addr:street": "Konrad-Zuse-Platz", "addr:postcode": "81829", "addr:housenumber": "8", "addr:country": null, "addr:city": "München" }, "geometry": { "type": "Point", "coordinates": [ 11.6892295, 48.1374794 ] } },
{ "type": "Feature", "properties": { "full_id": "n2400224307", "osm_id": "2400224307", "osm_type": "node", "check_date:opening_hours": null, "operator:wikipedia": null, "operator:wikidata": null, "level:ref": null, "level": null, "opening_hours": null, "contact:mobile": null, "fax": null, "brand:wikidata": null, "religion": null, "name:zh": null, "name:es": null, "short_name": null, "roof:shape": null, "loc_name": null, "full_name": null, "alt_website": null, "wikidata": null, "name:en": null, "name:de": null, "internet_access:ssid": null, "education": null, "fee": null, "contact:fax": null, "topic": null, "contact:email": null, "contact:phone": null, "description": null, "email": null, "wikipedia": "de:Dekra Akademie", "addr:housename": null, "wheelchair:description": null, "operator:type": null, "operator": "DEKRA Akademie GmbH", "toilets:wheelchair": null, "internet_access:fee": null, "internet_access": null, "contact:website": null, "wheelchair": null, "website": "https://www.dekra-akademie.de/standorte/muenchen", "phone": null, "name": "DEKRA Akademie", "college": null, "check_date": null, "amenity": "college", "addr:street": "Zielstattstraße", "addr:postcode": "81379", "addr:housenumber": "9", "addr:country": null, "addr:city": "München" }, "geometry": { "type": "Point", "coordinates": [ 11.5338741, 48.1029355 ] } },
{ "type": "Feature", "properties": { "full_id": "n2438975940", "osm_id": "2438975940", "osm_type": "node", "check_date:opening_hours": null, "operator:wikipedia": null, "operator:wikidata": null, "level:ref": null, "level": null, "opening_hours": null, "contact:mobile": null, "fax": null, "brand:wikidata": null, "religion": null, "name:zh": null, "name:es": null, "short_name": null, "roof:shape": null, "loc_name": null, "full_name": null, "alt_website": null, "wikidata": null, "name:en": null, "name:de": null, "internet_access:ssid": null, "education": null, "fee": null, "contact:fax": null, "topic": null, "contact:email": null, "contact:phone": null, "description": null, "email": "muenchen-dualesstudium@iu.org", "wikipedia": null, "addr:housename": null, "wheelchair:description": null, "operator:type": null, "operator": "Internationale Hochschule Bad Honnef · Bonn GmbH", "toilets:wheelchair": "no", "internet_access:fee": null, "internet_access": null, "contact:website": null, "wheelchair": "yes", "website": "https://www.iu-dualesstudium.de/standorte/muenchen/", "phone": "+49 89 9213102-10", "name": "IUBH - Duales Studium", "college": null, "check_date": "2025-11-30", "amenity": "university", "addr:street": "Berg-am-Laim-Straße", "addr:postcode": "81673", "addr:housenumber": "47", "addr:country": null, "addr:city": "München" }, "geometry": { "type": "Point", "coordinates": [ 11.6152536, 48.1313326 ] } },
{ "type": "Feature", "properties": { "full_id": "n2485263373", "osm_id": "2485263373", "osm_type": "node", "check_date:opening_hours": null, "operator:wikipedia": null, "operator:wikidata": null, "level:ref": null, "level": null, "opening_hours": null, "contact:mobile": null, "fax": null, "brand:wikidata": null, "religion": null, "name:zh": null, "name:es": null, "short_name": null, "roof:shape": null, "loc_name": null, "full_name": null, "alt_website": null, "wikidata": null, "name:en": null, "name:de": null, "internet_access:ssid": null, "education": null, "fee": null, "contact:fax": null, "topic": null, "contact:email": null, "contact:phone": null, "description": null, "email": null, "wikipedia": null, "addr:housename": null, "wheelchair:description": null, "operator:type": null, "operator": null, "toilets:wheelchair": null, "internet_access:fee": null, "internet_access": null, "contact:website": null, "wheelchair": null, "website": "https://hmtm.de/", "phone": null, "name": "Hochschule für Musik und Theater — Standort Wilhelmstraße", "college": null, "check_date": null, "amenity": "university", "addr:street": "Wilhelmstraße", "addr:postcode": "80801", "addr:housenumber": "19", "addr:country": "DE", "addr:city": "München" }, "geometry": { "type": "Point", "coordinates": [ 11.5821232, 48.1604539 ] } },
{ "type": "Feature", "properties": { "full_id": "n2513030157", "osm_id": "2513030157", "osm_type": "node", "check_date:opening_hours": null, "operator:wikipedia": null, "operator:wikidata": null, "level:ref": null, "level": null, "opening_hours": null, "contact:mobile": null, "fax": null, "brand:wikidata": null, "religion": null, "name:zh": null, "name:es": null, "short_name": null, "roof:shape": null, "loc_name": null, "full_name": null, "alt_website": null, "wikidata": null, "name:en": null, "name:de": null, "internet_access:ssid": null, "education": null, "fee": null, "contact:fax": null, "topic": null, "contact:email": null, "contact:phone": null, "description": null, "email": null, "wikipedia": null, "addr:housename": null, "wheelchair:description": null, "operator:type": null, "operator": null, "toilets:wheelchair": null, "internet_access:fee": null, "internet_access": null, "contact:website": null, "wheelchair": null, "website": null, "phone": null, "name": "Seniorenstudium (LMU)", "college": null, "check_date": "2026-05-12", "amenity": "university", "addr:street": null, "addr:postcode": null, "addr:housenumber": null, "addr:country": null, "addr:city": null }, "geometry": { "type": "Point", "coordinates": [ 11.5760512, 48.1566627 ] } },
{ "type": "Feature", "properties": { "full_id": "n2557267108", "osm_id": "2557267108", "osm_type": "node", "check_date:opening_hours": null, "operator:wikipedia": null, "operator:wikidata": null, "level:ref": null, "level": null, "opening_hours": null, "contact:mobile": null, "fax": null, "brand:wikidata": null, "religion": null, "name:zh": null, "name:es": null, "short_name": null, "roof:shape": null, "loc_name": null, "full_name": null, "alt_website": null, "wikidata": null, "name:en": null, "name:de": null, "internet_access:ssid": null, "education": null, "fee": null, "contact:fax": null, "topic": null, "contact:email": null, "contact:phone": null, "description": "Serlo.org bietet einfache Erklärungen, Kurse, Lernvideos, Übungen und Musterlösungen mit denen SchülerInnen und Studierende nach ihrem eigenen Bedarf und in ihrem eigenen Tempo lernen können. Die Lernplattform ist komplett kostenlos und werbefrei.", "email": "de@serlo.org", "wikipedia": null, "addr:housename": null, "wheelchair:description": null, "operator:type": null, "operator": "Serlo Education e.V.", "toilets:wheelchair": null, "internet_access:fee": null, "internet_access": "yes", "contact:website": null, "wheelchair": "yes", "website": "https://de.serlo.org/", "phone": null, "name": "Serlo Education e.V. – Hochschulgruppe der LMU", "college": null, "check_date": null, "amenity": "university", "addr:street": "Leopoldstraße", "addr:postcode": "80802", "addr:housenumber": "15", "addr:country": "DE", "addr:city": "München" }, "geometry": { "type": "Point", "coordinates": [ 11.5829267, 48.1566081 ] } },
{ "type": "Feature", "properties": { "full_id": "n2847116408", "osm_id": "2847116408", "osm_type": "node", "check_date:opening_hours": null, "operator:wikipedia": null, "operator:wikidata": null, "level:ref": null, "level": null, "opening_hours": null, "contact:mobile": null, "fax": null, "brand:wikidata": null, "religion": null, "name:zh": null, "name:es": null, "short_name": null, "roof:shape": null, "loc_name": null, "full_name": null, "alt_website": null, "wikidata": null, "name:en": null, "name:de": null, "internet_access:ssid": null, "education": null, "fee": null, "contact:fax": null, "topic": null, "contact:email": null, "contact:phone": null, "description": null, "email": null, "wikipedia": null, "addr:housename": null, "wheelchair:description": null, "operator:type": null, "operator": "Technischen Universität München", "toilets:wheelchair": null, "internet_access:fee": null, "internet_access": null, "contact:website": null, "wheelchair": null, "website": "https://www.mos.ed.tum.de/nma/startseite/", "phone": null, "name": "Lehrstuhl für Nachhaltige Mobile Antriebssysteme", "college": null, "check_date": null, "amenity": "university", "addr:street": null, "addr:postcode": null, "addr:housenumber": null, "addr:country": null, "addr:city": null }, "geometry": { "type": "Point", "coordinates": [ 11.4962685, 48.1695067 ] } },
{ "type": "Feature", "properties": { "full_id": "n3255654537", "osm_id": "3255654537", "osm_type": "node", "check_date:opening_hours": null, "operator:wikipedia": null, "operator:wikidata": null, "level:ref": null, "level": null, "opening_hours": null, "contact:mobile": null, "fax": null, "brand:wikidata": null, "religion": null, "name:zh": null, "name:es": null, "short_name": null, "roof:shape": null, "loc_name": null, "full_name": null, "alt_website": null, "wikidata": null, "name:en": null, "name:de": null, "internet_access:ssid": null, "education": null, "fee": null, "contact:fax": null, "topic": null, "contact:email": null, "contact:phone": "+49 89 2199 71 0", "description": null, "email": null, "wikipedia": null, "addr:housename": null, "wheelchair:description": null, "operator:type": null, "operator": null, "toilets:wheelchair": null, "internet_access:fee": null, "internet_access": null, "contact:website": "https://bayerischeakademie.de/", "wheelchair": null, "website": null, "phone": null, "name": "Bayerische Akademie für Außenwirtschaft e.V.", "college": null, "check_date": null, "amenity": "college", "addr:street": "Garmischer Straße", "addr:postcode": "80339", "addr:housenumber": "6", "addr:country": "DE", "addr:city": "München" }, "geometry": { "type": "Point", "coordinates": [ 11.5325252, 48.1334261 ] } },
{ "type": "Feature", "properties": { "full_id": "n3255654538", "osm_id": "3255654538", "osm_type": "node", "check_date:opening_hours": null, "operator:wikipedia": null, "operator:wikidata": null, "level:ref": null, "level": null, "opening_hours": null, "contact:mobile": null, "fax": null, "brand:wikidata": null, "religion": null, "name:zh": null, "name:es": null, "short_name": null, "roof:shape": null, "loc_name": null, "full_name": null, "alt_website": null, "wikidata": null, "name:en": null, "name:de": null, "internet_access:ssid": null, "education": null, "fee": null, "contact:fax": null, "topic": null, "contact:email": null, "contact:phone": "+49 89 219 971-0", "description": null, "email": null, "wikipedia": null, "addr:housename": null, "wheelchair:description": null, "operator:type": null, "operator": null, "toilets:wheelchair": null, "internet_access:fee": null, "internet_access": null, "contact:website": "https://didact.de/", "wheelchair": null, "website": null, "phone": null, "name": "Didact", "college": null, "check_date": null, "amenity": "college", "addr:street": "Garmischer Straße", "addr:postcode": "80339", "addr:housenumber": "6", "addr:country": "DE", "addr:city": "München" }, "geometry": { "type": "Point", "coordinates": [ 11.5325263, 48.1334112 ] } },
{ "type": "Feature", "properties": { "full_id": "n3414243194", "osm_id": "3414243194", "osm_type": "node", "check_date:opening_hours": null, "operator:wikipedia": null, "operator:wikidata": null, "level:ref": null, "level": null, "opening_hours": null, "contact:mobile": null, "fax": null, "brand:wikidata": null, "religion": null, "name:zh": null, "name:es": null, "short_name": null, "roof:shape": null, "loc_name": null, "full_name": null, "alt_website": null, "wikidata": null, "name:en": null, "name:de": null, "internet_access:ssid": null, "education": null, "fee": null, "contact:fax": null, "topic": null, "contact:email": null, "contact:phone": null, "description": null, "email": null, "wikipedia": null, "addr:housename": null, "wheelchair:description": null, "operator:type": null, "operator": "Technische Universität München", "toilets:wheelchair": null, "internet_access:fee": null, "internet_access": null, "contact:website": null, "wheelchair": "limited", "website": "https://www.dgfi.tum.de", "phone": null, "name": "DGFI-TUM", "college": null, "check_date": null, "amenity": "university", "addr:street": "Residenzstraße", "addr:postcode": "80333", "addr:housenumber": "1", "addr:country": null, "addr:city": null }, "geometry": { "type": "Point", "coordinates": [ 11.5780072, 48.1413043 ] } },
{ "type": "Feature", "properties": { "full_id": "n3929291567", "osm_id": "3929291567", "osm_type": "node", "check_date:opening_hours": null, "operator:wikipedia": null, "operator:wikidata": null, "level:ref": null, "level": null, "opening_hours": null, "contact:mobile": null, "fax": null, "brand:wikidata": null, "religion": null, "name:zh": null, "name:es": null, "short_name": null, "roof:shape": null, "loc_name": null, "full_name": null, "alt_website": null, "wikidata": null, "name:en": null, "name:de": null, "internet_access:ssid": null, "education": null, "fee": null, "contact:fax": null, "topic": "environment", "contact:email": "info@nachhaltigehochschule.de", "contact:phone": null, "description": null, "email": null, "wikipedia": null, "addr:housename": null, "wheelchair:description": null, "operator:type": null, "operator": null, "toilets:wheelchair": null, "internet_access:fee": null, "internet_access": null, "contact:website": "https://www.bayzen.de/", "wheelchair": "no", "website": null, "phone": null, "name": "Hochschule und Nachhaltigkeit Bayern Hochschule München", "college": null, "check_date": null, "amenity": "university", "addr:street": "Lothstraße", "addr:postcode": "80335", "addr:housenumber": "34", "addr:country": "DE", "addr:city": "München" }, "geometry": { "type": "Point", "coordinates": [ 11.5523631, 48.1531606 ] } },
{ "type": "Feature", "properties": { "full_id": "n4375975506", "osm_id": "4375975506", "osm_type": "node", "check_date:opening_hours": null, "operator:wikipedia": null, "operator:wikidata": null, "level:ref": null, "level": null, "opening_hours": null, "contact:mobile": null, "fax": null, "brand:wikidata": null, "religion": null, "name:zh": null, "name:es": null, "short_name": null, "roof:shape": null, "loc_name": null, "full_name": null, "alt_website": null, "wikidata": null, "name:en": null, "name:de": null, "internet_access:ssid": null, "education": null, "fee": null, "contact:fax": null, "topic": null, "contact:email": null, "contact:phone": null, "description": null, "email": null, "wikipedia": null, "addr:housename": null, "wheelchair:description": null, "operator:type": null, "operator": null, "toilets:wheelchair": null, "internet_access:fee": null, "internet_access": null, "contact:website": null, "wheelchair": null, "website": null, "phone": null, "name": "Berufsfachschule für Krankenpflege Maria Regina", "college": null, "check_date": "2025-07-03", "amenity": "college", "addr:street": null, "addr:postcode": null, "addr:housenumber": null, "addr:country": null, "addr:city": null }, "geometry": { "type": "Point", "coordinates": [ 11.5661327, 48.131051 ] } },
{ "type": "Feature", "properties": { "full_id": "n4379246720", "osm_id": "4379246720", "osm_type": "node", "check_date:opening_hours": null, "operator:wikipedia": null, "operator:wikidata": null, "level:ref": null, "level": null, "opening_hours": null, "contact:mobile": null, "fax": null, "brand:wikidata": null, "religion": null, "name:zh": null, "name:es": null, "short_name": null, "roof:shape": null, "loc_name": null, "full_name": null, "alt_website": null, "wikidata": null, "name:en": null, "name:de": null, "internet_access:ssid": null, "education": null, "fee": null, "contact:fax": null, "topic": null, "contact:email": null, "contact:phone": null, "description": null, "email": null, "wikipedia": null, "addr:housename": null, "wheelchair:description": null, "operator:type": null, "operator": null, "toilets:wheelchair": null, "internet_access:fee": null, "internet_access": null, "contact:website": null, "wheelchair": "no", "website": null, "phone": null, "name": "Hochschule für Politik München", "college": null, "check_date": "2025-10-03", "amenity": "college", "addr:street": "Richard-Wagner-Straße", "addr:postcode": "80333", "addr:housenumber": "1", "addr:country": null, "addr:city": "München" }, "geometry": { "type": "Point", "coordinates": [ 11.5629942, 48.1469822 ] } },
{ "type": "Feature", "properties": { "full_id": "n4448465264", "osm_id": "4448465264", "osm_type": "node", "check_date:opening_hours": null, "operator:wikipedia": null, "operator:wikidata": null, "level:ref": null, "level": null, "opening_hours": null, "contact:mobile": null, "fax": null, "brand:wikidata": null, "religion": null, "name:zh": null, "name:es": null, "short_name": null, "roof:shape": null, "loc_name": null, "full_name": null, "alt_website": null, "wikidata": null, "name:en": null, "name:de": null, "internet_access:ssid": null, "education": null, "fee": "yes", "contact:fax": "+49 89 839 29 40-20", "topic": null, "contact:email": "muenchen.akademie@dekra.com", "contact:phone": "+49 89 839 29 40-0", "description": null, "email": null, "wikipedia": null, "addr:housename": null, "wheelchair:description": null, "operator:type": null, "operator": "DEKRA Akademie GmbH", "toilets:wheelchair": null, "internet_access:fee": null, "internet_access": null, "contact:website": "https://www.dekra-akademie.de/standorte/muenchen", "wheelchair": null, "website": null, "phone": null, "name": "DEKRA Akademie", "college": null, "check_date": null, "amenity": "college", "addr:street": "Haberlandstraße", "addr:postcode": "81241", "addr:housenumber": "59", "addr:country": "DE", "addr:city": "München" }, "geometry": { "type": "Point", "coordinates": [ 11.4461165, 48.1488143 ] } },
{ "type": "Feature", "properties": { "full_id": "n4984543723", "osm_id": "4984543723", "osm_type": "node", "check_date:opening_hours": null, "operator:wikipedia": null, "operator:wikidata": null, "level:ref": null, "level": null, "opening_hours": null, "contact:mobile": null, "fax": null, "brand:wikidata": null, "religion": null, "name:zh": null, "name:es": null, "short_name": null, "roof:shape": null, "loc_name": null, "full_name": null, "alt_website": null, "wikidata": null, "name:en": null, "name:de": null, "internet_access:ssid": null, "education": null, "fee": null, "contact:fax": null, "topic": null, "contact:email": null, "contact:phone": null, "description": null, "email": null, "wikipedia": null, "addr:housename": null, "wheelchair:description": null, "operator:type": null, "operator": null, "toilets:wheelchair": null, "internet_access:fee": null, "internet_access": null, "contact:website": null, "wheelchair": "yes", "website": "https://www.mvhs.de/ueber-uns/standorte/stadtbereich-mitte", "phone": null, "name": "Münchner Volkshochschule – Einstein 28", "college": null, "check_date": "2025-08-14", "amenity": "college", "addr:street": "Einsteinstraße", "addr:postcode": "81675", "addr:housenumber": "28", "addr:country": null, "addr:city": "München" }, "geometry": { "type": "Point", "coordinates": [ 11.5998193, 48.135351 ] } },
{ "type": "Feature", "properties": { "full_id": "n5772457341", "osm_id": "5772457341", "osm_type": "node", "check_date:opening_hours": null, "operator:wikipedia": null, "operator:wikidata": null, "level:ref": null, "level": null, "opening_hours": null, "contact:mobile": null, "fax": null, "brand:wikidata": null, "religion": null, "name:zh": null, "name:es": null, "short_name": null, "roof:shape": null, "loc_name": null, "full_name": null, "alt_website": null, "wikidata": null, "name:en": "Technical University of Munich", "name:de": "Technische Universität München", "internet_access:ssid": "eduroam", "education": "university", "fee": null, "contact:fax": null, "topic": null, "contact:email": null, "contact:phone": null, "description": null, "email": null, "wikipedia": null, "addr:housename": null, "wheelchair:description": null, "operator:type": "public", "operator": "Technische Universität München", "toilets:wheelchair": null, "internet_access:fee": "no", "internet_access": "wlan", "contact:website": null, "wheelchair": null, "website": "https://www.tum.de/", "phone": null, "name": "Technische Universität München", "college": null, "check_date": null, "amenity": "university", "addr:street": "Augustenstraße", "addr:postcode": "80333", "addr:housenumber": "44-46", "addr:country": null, "addr:city": "München" }, "geometry": { "type": "Point", "coordinates": [ 11.5624193, 48.1478343 ] } },
{ "type": "Feature", "properties": { "full_id": "n5862775989", "osm_id": "5862775989", "osm_type": "node", "check_date:opening_hours": null, "operator:wikipedia": null, "operator:wikidata": null, "level:ref": null, "level": null, "opening_hours": null, "contact:mobile": null, "fax": null, "brand:wikidata": null, "religion": null, "name:zh": null, "name:es": null, "short_name": null, "roof:shape": null, "loc_name": null, "full_name": null, "alt_website": null, "wikidata": null, "name:en": "The Arnold Sommerfeld Center for Theoretical Physics", "name:de": null, "internet_access:ssid": null, "education": null, "fee": null, "contact:fax": null, "topic": null, "contact:email": null, "contact:phone": null, "description": null, "email": null, "wikipedia": null, "addr:housename": null, "wheelchair:description": null, "operator:type": null, "operator": null, "toilets:wheelchair": null, "internet_access:fee": null, "internet_access": null, "contact:website": "https://www.theorie.physik.uni-muenchen.de", "wheelchair": null, "website": null, "phone": null, "name": "Arnold Sommerfeld Center", "college": null, "check_date": "2025-08-18", "amenity": "university", "addr:street": null, "addr:postcode": null, "addr:housenumber": null, "addr:country": null, "addr:city": null }, "geometry": { "type": "Point", "coordinates": [ 11.5734693, 48.1479303 ] } },
{ "type": "Feature", "properties": { "full_id": "n6029489006", "osm_id": "6029489006", "osm_type": "node", "check_date:opening_hours": null, "operator:wikipedia": null, "operator:wikidata": null, "level:ref": null, "level": null, "opening_hours": null, "contact:mobile": null, "fax": null, "brand:wikidata": null, "religion": null, "name:zh": null, "name:es": null, "short_name": null, "roof:shape": null, "loc_name": null, "full_name": null, "alt_website": null, "wikidata": "Q1346417", "name:en": null, "name:de": null, "internet_access:ssid": null, "education": null, "fee": null, "contact:fax": null, "topic": null, "contact:email": null, "contact:phone": null, "description": null, "email": null, "wikipedia": "de:Hochschule_Macromedia", "addr:housename": null, "wheelchair:description": null, "operator:type": "business", "operator": "Macromedia GmbH", "toilets:wheelchair": null, "internet_access:fee": null, "internet_access": null, "contact:website": null, "wheelchair": null, "website": "https://www.macromedia-fachhochschule.de/de/", "phone": null, "name": "Hochschule Macromedia", "college": null, "check_date": "2025-05-18", "amenity": "university", "addr:street": "Sandstraße", "addr:postcode": "80335", "addr:housenumber": "9", "addr:country": null, "addr:city": "München" }, "geometry": { "type": "Point", "coordinates": [ 11.55502, 48.1473605 ] } },
{ "type": "Feature", "properties": { "full_id": "n7080823087", "osm_id": "7080823087", "osm_type": "node", "check_date:opening_hours": null, "operator:wikipedia": null, "operator:wikidata": null, "level:ref": null, "level": null, "opening_hours": null, "contact:mobile": null, "fax": null, "brand:wikidata": null, "religion": null, "name:zh": null, "name:es": null, "short_name": null, "roof:shape": null, "loc_name": null, "full_name": "Institut für Statistik, Ludwig Maximilians Universität, München", "alt_website": "http://www.statistik.lmu.de", "wikidata": null, "name:en": "Department of Statistics, Ludwig Maximilians Universität, Munich", "name:de": null, "internet_access:ssid": null, "education": null, "fee": null, "contact:fax": null, "topic": null, "contact:email": "geschaeftsstelle@stat.uni-muenchen.de", "contact:phone": "+49 89 218 031 95", "description": null, "email": null, "wikipedia": null, "addr:housename": null, "wheelchair:description": null, "operator:type": null, "operator": null, "toilets:wheelchair": "yes", "internet_access:fee": null, "internet_access": null, "contact:website": "https://www.stat.lmu.de/", "wheelchair": "yes", "website": null, "phone": null, "name": "Institut für Statistik der LMU", "college": null, "check_date": null, "amenity": "university", "addr:street": "Ludwigstraße", "addr:postcode": "80539", "addr:housenumber": "33", "addr:country": "DE", "addr:city": "München" }, "geometry": { "type": "Point", "coordinates": [ 11.581535, 48.1521649 ] } },
{ "type": "Feature", "properties": { "full_id": "n7235704223", "osm_id": "7235704223", "osm_type": "node", "check_date:opening_hours": null, "operator:wikipedia": null, "operator:wikidata": null, "level:ref": null, "level": null, "opening_hours": null, "contact:mobile": null, "fax": null, "brand:wikidata": null, "religion": null, "name:zh": null, "name:es": null, "short_name": null, "roof:shape": null, "loc_name": null, "full_name": null, "alt_website": null, "wikidata": null, "name:en": null, "name:de": null, "internet_access:ssid": null, "education": null, "fee": null, "contact:fax": null, "topic": null, "contact:email": null, "contact:phone": null, "description": null, "email": null, "wikipedia": null, "addr:housename": null, "wheelchair:description": null, "operator:type": null, "operator": null, "toilets:wheelchair": null, "internet_access:fee": null, "internet_access": null, "contact:website": null, "wheelchair": null, "website": "https://www.euruni.edu/en/Campuses/Munich.html", "phone": null, "name": "EU Business School", "college": null, "check_date": null, "amenity": "university", "addr:street": "Theresienhöhe", "addr:postcode": "80339", "addr:housenumber": "28", "addr:country": "DE", "addr:city": "München" }, "geometry": { "type": "Point", "coordinates": [ 11.5446179, 48.1286529 ] } },
{ "type": "Feature", "properties": { "full_id": "n7728674943", "osm_id": "7728674943", "osm_type": "node", "check_date:opening_hours": null, "operator:wikipedia": null, "operator:wikidata": null, "level:ref": null, "level": null, "opening_hours": null, "contact:mobile": null, "fax": null, "brand:wikidata": null, "religion": null, "name:zh": null, "name:es": null, "short_name": "HFF München", "roof:shape": "flat", "loc_name": "HFF", "full_name": null, "alt_website": null, "wikidata": "Q569350", "name:en": null, "name:de": null, "internet_access:ssid": null, "education": null, "fee": null, "contact:fax": null, "topic": null, "contact:email": null, "contact:phone": null, "description": null, "email": null, "wikipedia": "de:Hochschule für Fernsehen und Film München", "addr:housename": "HFF München", "wheelchair:description": null, "operator:type": null, "operator": null, "toilets:wheelchair": "yes", "internet_access:fee": null, "internet_access": null, "contact:website": null, "wheelchair": "yes", "website": "https://www.hff-muc.de/", "phone": null, "name": "Hochschule für Fernsehen und Film München", "college": null, "check_date": null, "amenity": "university", "addr:street": "Bernd-Eichinger-Platz", "addr:postcode": "80333", "addr:housenumber": "1", "addr:country": null, "addr:city": "München" }, "geometry": { "type": "Point", "coordinates": [ 11.5695103, 48.1466444 ] } },
{ "type": "Feature", "properties": { "full_id": "n7775849853", "osm_id": "7775849853", "osm_type": "node", "check_date:opening_hours": null, "operator:wikipedia": null, "operator:wikidata": null, "level:ref": null, "level": null, "opening_hours": null, "contact:mobile": null, "fax": null, "brand:wikidata": null, "religion": null, "name:zh": "慕尼黑音乐戏剧学院", "name:es": "Escuela Superior de Música y Teatro", "short_name": "HMTM", "roof:shape": null, "loc_name": null, "full_name": null, "alt_website": null, "wikidata": "Q657167", "name:en": "University of Music and Theatre Munich", "name:de": null, "internet_access:ssid": null, "education": null, "fee": null, "contact:fax": null, "topic": null, "contact:email": null, "contact:phone": null, "description": null, "email": null, "wikipedia": "de:Hochschule für Musik und Theater München", "addr:housename": null, "wheelchair:description": null, "operator:type": null, "operator": null, "toilets:wheelchair": null, "internet_access:fee": null, "internet_access": null, "contact:website": "https://hmtm.de/", "wheelchair": null, "website": null, "phone": null, "name": "Hochschule für Musik und Theater München", "college": null, "check_date": null, "amenity": "university", "addr:street": "Arcisstraße", "addr:postcode": "80333", "addr:housenumber": "12", "addr:country": "DE", "addr:city": "München" }, "geometry": { "type": "Point", "coordinates": [ 11.5674452, 48.1460982 ] } },
{ "type": "Feature", "properties": { "full_id": "n8100536923", "osm_id": "8100536923", "osm_type": "node", "check_date:opening_hours": null, "operator:wikipedia": null, "operator:wikidata": null, "level:ref": null, "level": null, "opening_hours": null, "contact:mobile": null, "fax": null, "brand:wikidata": null, "religion": "none", "name:zh": null, "name:es": null, "short_name": null, "roof:shape": null, "loc_name": null, "full_name": null, "alt_website": null, "wikidata": "Q19278112", "name:en": null, "name:de": null, "internet_access:ssid": null, "education": null, "fee": null, "contact:fax": null, "topic": null, "contact:email": null, "contact:phone": null, "description": null, "email": null, "wikipedia": "de:Deutsche Meisterschule für Mode", "addr:housename": null, "wheelchair:description": null, "operator:type": "public", "operator": "Landeshauptstadt München", "toilets:wheelchair": null, "internet_access:fee": null, "internet_access": null, "contact:website": null, "wheelchair": null, "website": null, "phone": null, "name": "Deutsche Meisterschule für Mode | Designschule München", "college": null, "check_date": null, "amenity": "college", "addr:street": "Roßmarkt", "addr:postcode": "80331", "addr:housenumber": "15", "addr:country": "DE", "addr:city": "München" }, "geometry": { "type": "Point", "coordinates": [ 11.5695637, 48.133077 ] } },
{ "type": "Feature", "properties": { "full_id": "n8143714328", "osm_id": "8143714328", "osm_type": "node", "check_date:opening_hours": null, "operator:wikipedia": null, "operator:wikidata": null, "level:ref": null, "level": null, "opening_hours": null, "contact:mobile": null, "fax": null, "brand:wikidata": null, "religion": null, "name:zh": null, "name:es": null, "short_name": null, "roof:shape": null, "loc_name": null, "full_name": null, "alt_website": null, "wikidata": null, "name:en": null, "name:de": null, "internet_access:ssid": null, "education": null, "fee": null, "contact:fax": null, "topic": null, "contact:email": null, "contact:phone": null, "description": null, "email": null, "wikipedia": null, "addr:housename": null, "wheelchair:description": null, "operator:type": null, "operator": null, "toilets:wheelchair": null, "internet_access:fee": null, "internet_access": null, "contact:website": null, "wheelchair": null, "website": null, "phone": null, "name": "Hochschule für Musik und Theater — Standort Luisenstraße", "college": null, "check_date": "2026-01-30", "amenity": "university", "addr:street": "Luisenstraße", "addr:postcode": "80333", "addr:housenumber": "37a", "addr:country": "DE", "addr:city": "München" }, "geometry": { "type": "Point", "coordinates": [ 11.5648993, 48.1481861 ] } },
{ "type": "Feature", "properties": { "full_id": "n8143714329", "osm_id": "8143714329", "osm_type": "node", "check_date:opening_hours": null, "operator:wikipedia": null, "operator:wikidata": null, "level:ref": null, "level": null, "opening_hours": null, "contact:mobile": null, "fax": null, "brand:wikidata": null, "religion": null, "name:zh": null, "name:es": null, "short_name": null, "roof:shape": null, "loc_name": null, "full_name": null, "alt_website": null, "wikidata": null, "name:en": null, "name:de": null, "internet_access:ssid": null, "education": null, "fee": null, "contact:fax": null, "topic": null, "contact:email": null, "contact:phone": null, "description": null, "email": null, "wikipedia": null, "addr:housename": null, "wheelchair:description": null, "operator:type": null, "operator": null, "toilets:wheelchair": null, "internet_access:fee": null, "internet_access": null, "contact:website": null, "wheelchair": null, "website": null, "phone": null, "name": "Hochschule für Musik und Theater — Gebäude C", "college": null, "check_date": "2024-04-24", "amenity": "university", "addr:street": null, "addr:postcode": null, "addr:housenumber": null, "addr:country": "DE", "addr:city": "München" }, "geometry": { "type": "Point", "coordinates": [ 11.5681203, 48.1455784 ] } },
{ "type": "Feature", "properties": { "full_id": "n8285161077", "osm_id": "8285161077", "osm_type": "node", "check_date:opening_hours": null, "operator:wikipedia": null, "operator:wikidata": null, "level:ref": null, "level": null, "opening_hours": null, "contact:mobile": null, "fax": null, "brand:wikidata": null, "religion": null, "name:zh": null, "name:es": null, "short_name": null, "roof:shape": null, "loc_name": null, "full_name": null, "alt_website": null, "wikidata": null, "name:en": null, "name:de": null, "internet_access:ssid": null, "education": null, "fee": null, "contact:fax": null, "topic": null, "contact:email": null, "contact:phone": null, "description": null, "email": null, "wikipedia": null, "addr:housename": null, "wheelchair:description": null, "operator:type": "public", "operator": "Hochschule für angewandte Wissenschaften München", "toilets:wheelchair": null, "internet_access:fee": null, "internet_access": null, "contact:website": null, "wheelchair": null, "website": "https://www.hm.edu/", "phone": null, "name": "Fakultät für Architektur, Fakultät für Bauingenierwesen, Fakultät für Geoinformation", "college": null, "check_date": null, "amenity": "university", "addr:street": null, "addr:postcode": null, "addr:housenumber": null, "addr:country": null, "addr:city": null }, "geometry": { "type": "Point", "coordinates": [ 11.5688847, 48.1427164 ] } },
{ "type": "Feature", "properties": { "full_id": "n9130196630", "osm_id": "9130196630", "osm_type": "node", "check_date:opening_hours": null, "operator:wikipedia": null, "operator:wikidata": null, "level:ref": null, "level": null, "opening_hours": null, "contact:mobile": null, "fax": null, "brand:wikidata": null, "religion": null, "name:zh": null, "name:es": null, "short_name": null, "roof:shape": null, "loc_name": null, "full_name": null, "alt_website": null, "wikidata": null, "name:en": null, "name:de": null, "internet_access:ssid": "BayernWLAN;eduroam", "education": null, "fee": null, "contact:fax": null, "topic": null, "contact:email": null, "contact:phone": null, "description": null, "email": null, "wikipedia": null, "addr:housename": null, "wheelchair:description": null, "operator:type": "public", "operator": "Ludwig-Maximilians-Universität München", "toilets:wheelchair": null, "internet_access:fee": "no", "internet_access": "yes", "contact:website": null, "wheelchair": "yes", "website": null, "phone": null, "name": "Fakultät für Geowissenschaften", "college": null, "check_date": "2026-03-07", "amenity": "university", "addr:street": "Luisenstraße", "addr:postcode": "80333", "addr:housenumber": "37", "addr:country": null, "addr:city": "München" }, "geometry": { "type": "Point", "coordinates": [ 11.5643966, 48.1475003 ] } },
{ "type": "Feature", "properties": { "full_id": "n9160142017", "osm_id": "9160142017", "osm_type": "node", "check_date:opening_hours": null, "operator:wikipedia": null, "operator:wikidata": null, "level:ref": null, "level": null, "opening_hours": null, "contact:mobile": null, "fax": null, "brand:wikidata": "Q1527995", "religion": null, "name:zh": null, "name:es": null, "short_name": null, "roof:shape": null, "loc_name": null, "full_name": null, "alt_website": null, "wikidata": null, "name:en": null, "name:de": null, "internet_access:ssid": null, "education": null, "fee": null, "contact:fax": null, "topic": null, "contact:email": null, "contact:phone": null, "description": null, "email": null, "wikipedia": null, "addr:housename": null, "wheelchair:description": null, "operator:type": null, "operator": null, "toilets:wheelchair": null, "internet_access:fee": null, "internet_access": null, "contact:website": null, "wheelchair": "yes", "website": "https://www.mvhs.de/", "phone": null, "name": "Münchner Volkshochschule HP8", "college": "adult_education", "check_date": "2026-08-15", "amenity": "college", "addr:street": null, "addr:postcode": null, "addr:housenumber": null, "addr:country": null, "addr:city": null }, "geometry": { "type": "Point", "coordinates": [ 11.5542264, 48.111151 ] } },
{ "type": "Feature", "properties": { "full_id": "n9160144285", "osm_id": "9160144285", "osm_type": "node", "check_date:opening_hours": null, "operator:wikipedia": null, "operator:wikidata": null, "level:ref": null, "level": null, "opening_hours": null, "contact:mobile": null, "fax": null, "brand:wikidata": null, "religion": null, "name:zh": null, "name:es": null, "short_name": null, "roof:shape": null, "loc_name": null, "full_name": null, "alt_website": null, "wikidata": null, "name:en": null, "name:de": null, "internet_access:ssid": null, "education": null, "fee": null, "contact:fax": null, "topic": null, "contact:email": null, "contact:phone": null, "description": null, "email": null, "wikipedia": null, "addr:housename": null, "wheelchair:description": null, "operator:type": null, "operator": null, "toilets:wheelchair": null, "internet_access:fee": null, "internet_access": null, "contact:website": null, "wheelchair": null, "website": "https://hmtm.de/", "phone": null, "name": "Hochschule für Musik und Theater — Standort Gasteig HP8", "college": null, "check_date": "2026-06-02", "amenity": "university", "addr:street": "Hans-Preißinger-Straße", "addr:postcode": "81379", "addr:housenumber": "6", "addr:country": "DE", "addr:city": "München" }, "geometry": { "type": "Point", "coordinates": [ 11.5535556, 48.1105755 ] } },
{ "type": "Feature", "properties": { "full_id": "n9177030961", "osm_id": "9177030961", "osm_type": "node", "check_date:opening_hours": null, "operator:wikipedia": null, "operator:wikidata": null, "level:ref": null, "level": null, "opening_hours": null, "contact:mobile": null, "fax": "+49 89 48 54 52", "brand:wikidata": null, "religion": null, "name:zh": null, "name:es": null, "short_name": null, "roof:shape": null, "loc_name": null, "full_name": null, "alt_website": null, "wikidata": null, "name:en": null, "name:de": null, "internet_access:ssid": null, "education": null, "fee": null, "contact:fax": null, "topic": null, "contact:email": null, "contact:phone": null, "description": "Berufsfachschule für Innenarchitektur und Kommunikationsdesign", "email": "kontakt@blochererschule.de", "wikipedia": null, "addr:housename": null, "wheelchair:description": null, "operator:type": null, "operator": null, "toilets:wheelchair": null, "internet_access:fee": null, "internet_access": null, "contact:website": null, "wheelchair": null, "website": "https://www.blochererschule.de/", "phone": "+49 89 48 84 24", "name": "Blocherer Schule", "college": null, "check_date": "2025-01-25", "amenity": "college", "addr:street": null, "addr:postcode": null, "addr:housenumber": null, "addr:country": null, "addr:city": null }, "geometry": { "type": "Point", "coordinates": [ 11.6289644, 48.1321508 ] } },
{ "type": "Feature", "properties": { "full_id": "n9330520467", "osm_id": "9330520467", "osm_type": "node", "check_date:opening_hours": null, "operator:wikipedia": null, "operator:wikidata": null, "level:ref": null, "level": null, "opening_hours": null, "contact:mobile": null, "fax": null, "brand:wikidata": null, "religion": null, "name:zh": null, "name:es": null, "short_name": null, "roof:shape": null, "loc_name": null, "full_name": null, "alt_website": null, "wikidata": null, "name:en": null, "name:de": null, "internet_access:ssid": null, "education": null, "fee": null, "contact:fax": null, "topic": null, "contact:email": "bogenhausen@mvhs.de", "contact:phone": "+49 89 480066940", "description": null, "email": null, "wikipedia": null, "addr:housename": null, "wheelchair:description": null, "operator:type": null, "operator": "Münchner Volkshochschule GmbH", "toilets:wheelchair": null, "internet_access:fee": null, "internet_access": "yes", "contact:website": "https://www.mvhs.de/", "wheelchair": "yes", "website": null, "phone": null, "name": "Münchner Volkshochschule", "college": "adult_education", "check_date": "2025-07-27", "amenity": "college", "addr:street": "Rosenkavalierplatz", "addr:postcode": "81925", "addr:housenumber": "16", "addr:country": "DE", "addr:city": "München" }, "geometry": { "type": "Point", "coordinates": [ 11.6198419, 48.1517455 ] } },
{ "type": "Feature", "properties": { "full_id": "n9436684716", "osm_id": "9436684716", "osm_type": "node", "check_date:opening_hours": null, "operator:wikipedia": null, "operator:wikidata": null, "level:ref": null, "level": null, "opening_hours": null, "contact:mobile": null, "fax": null, "brand:wikidata": null, "religion": null, "name:zh": null, "name:es": null, "short_name": null, "roof:shape": null, "loc_name": null, "full_name": null, "alt_website": null, "wikidata": null, "name:en": null, "name:de": null, "internet_access:ssid": null, "education": null, "fee": null, "contact:fax": null, "topic": null, "contact:email": null, "contact:phone": null, "description": null, "email": null, "wikipedia": null, "addr:housename": null, "wheelchair:description": null, "operator:type": null, "operator": "Oberlandesgericht München – Referat VI", "toilets:wheelchair": null, "internet_access:fee": null, "internet_access": null, "contact:website": null, "wheelchair": null, "website": "https://campusjustiz.de/index.php/standorte/campusjustiz-muenchen/adresse-sms72/", "phone": null, "name": "CampusJustiz München - Gebäude I", "college": null, "check_date": "2024-07-03", "amenity": "college", "addr:street": "Sankt-Martin-Straße", "addr:postcode": null, "addr:housenumber": "72", "addr:country": null, "addr:city": null }, "geometry": { "type": "Point", "coordinates": [ 11.5971713, 48.1184536 ] } },
{ "type": "Feature", "properties": { "full_id": "n9436723117", "osm_id": "9436723117", "osm_type": "node", "check_date:opening_hours": null, "operator:wikipedia": null, "operator:wikidata": null, "level:ref": null, "level": null, "opening_hours": null, "contact:mobile": null, "fax": null, "brand:wikidata": null, "religion": null, "name:zh": null, "name:es": null, "short_name": null, "roof:shape": null, "loc_name": null, "full_name": null, "alt_website": null, "wikidata": null, "name:en": null, "name:de": null, "internet_access:ssid": null, "education": null, "fee": null, "contact:fax": null, "topic": null, "contact:email": null, "contact:phone": null, "description": null, "email": null, "wikipedia": null, "addr:housename": null, "wheelchair:description": null, "operator:type": null, "operator": "Oberlandesgericht München – Referat VI", "toilets:wheelchair": null, "internet_access:fee": null, "internet_access": null, "contact:website": null, "wheelchair": null, "website": "https://campusjustiz.de/index.php/standorte/campusjustiz-muenchen/adresse-sms74/", "phone": null, "name": "CampusJustiz München - Gebäude II", "college": null, "check_date": "2024-09-05", "amenity": "college", "addr:street": "Sankt-Martin-Straße", "addr:postcode": null, "addr:housenumber": "74", "addr:country": null, "addr:city": null }, "geometry": { "type": "Point", "coordinates": [ 11.5960859, 48.1178425 ] } },
{ "type": "Feature", "properties": { "full_id": "n9828814305", "osm_id": "9828814305", "osm_type": "node", "check_date:opening_hours": null, "operator:wikipedia": null, "operator:wikidata": null, "level:ref": null, "level": null, "opening_hours": null, "contact:mobile": null, "fax": null, "brand:wikidata": null, "religion": null, "name:zh": null, "name:es": null, "short_name": null, "roof:shape": null, "loc_name": null, "full_name": null, "alt_website": null, "wikidata": null, "name:en": null, "name:de": null, "internet_access:ssid": "eduroam", "education": "university", "fee": null, "contact:fax": null, "topic": null, "contact:email": null, "contact:phone": null, "description": null, "email": null, "wikipedia": null, "addr:housename": null, "wheelchair:description": null, "operator:type": "public", "operator": "Technische Universität München", "toilets:wheelchair": null, "internet_access:fee": "no", "internet_access": "wlan", "contact:website": null, "wheelchair": null, "website": "https://www.tum.de/", "phone": null, "name": "TUM Sprachenzentrum", "college": null, "check_date": "2024-08-21", "amenity": "university", "addr:street": "Richard-Wagner-Straße", "addr:postcode": "80333", "addr:housenumber": "3", "addr:country": null, "addr:city": "München" }, "geometry": { "type": "Point", "coordinates": [ 11.5632336, 48.1471226 ] } },
{ "type": "Feature", "properties": { "full_id": "n10094782332", "osm_id": "10094782332", "osm_type": "node", "check_date:opening_hours": null, "operator:wikipedia": null, "operator:wikidata": null, "level:ref": null, "level": null, "opening_hours": null, "contact:mobile": null, "fax": "+49 89 1265 2714", "brand:wikidata": null, "religion": null, "name:zh": null, "name:es": null, "short_name": null, "roof:shape": null, "loc_name": null, "full_name": null, "alt_website": null, "wikidata": null, "name:en": null, "name:de": null, "internet_access:ssid": "@BayernWLAN", "education": null, "fee": null, "contact:fax": null, "topic": null, "contact:email": null, "contact:phone": null, "description": null, "email": null, "wikipedia": null, "addr:housename": null, "wheelchair:description": null, "operator:type": null, "operator": null, "toilets:wheelchair": null, "internet_access:fee": "no", "internet_access": "wlan", "contact:website": null, "wheelchair": null, "website": "https://hmbs.hm.edu/", "phone": "+49 89 1265 2715", "name": "Fakultät für Betriebswirtschaft (FK10)", "college": null, "check_date": null, "amenity": "college", "addr:street": "Am Stadtpark", "addr:postcode": "81243", "addr:housenumber": "20", "addr:country": null, "addr:city": "München" }, "geometry": { "type": "Point", "coordinates": [ 11.4506235, 48.1413645 ] } },
{ "type": "Feature", "properties": { "full_id": "n10094782333", "osm_id": "10094782333", "osm_type": "node", "check_date:opening_hours": null, "operator:wikipedia": null, "operator:wikidata": null, "level:ref": null, "level": null, "opening_hours": null, "contact:mobile": null, "fax": null, "brand:wikidata": null, "religion": null, "name:zh": null, "name:es": null, "short_name": null, "roof:shape": null, "loc_name": null, "full_name": null, "alt_website": null, "wikidata": null, "name:en": null, "name:de": null, "internet_access:ssid": "@BayernWLAN", "education": null, "fee": null, "contact:fax": null, "topic": null, "contact:email": null, "contact:phone": null, "description": null, "email": null, "wikipedia": null, "addr:housename": null, "wheelchair:description": null, "operator:type": null, "operator": null, "toilets:wheelchair": null, "internet_access:fee": "no", "internet_access": "wlan", "contact:website": null, "wheelchair": null, "website": "https://www.sw.hm.edu/", "phone": null, "name": "Fakultät für angewandte Sozialwissenschaften (FK11)", "college": null, "check_date": null, "amenity": "college", "addr:street": "Am Stadtpark", "addr:postcode": "81243", "addr:housenumber": "20", "addr:country": null, "addr:city": "München" }, "geometry": { "type": "Point", "coordinates": [ 11.4515144, 48.141711 ] } },
{ "type": "Feature", "properties": { "full_id": "n10164979289", "osm_id": "10164979289", "osm_type": "node", "check_date:opening_hours": null, "operator:wikipedia": null, "operator:wikidata": null, "level:ref": null, "level": null, "opening_hours": null, "contact:mobile": null, "fax": null, "brand:wikidata": null, "religion": null, "name:zh": null, "name:es": null, "short_name": null, "roof:shape": null, "loc_name": null, "full_name": null, "alt_website": null, "wikidata": null, "name:en": null, "name:de": null, "internet_access:ssid": null, "education": null, "fee": null, "contact:fax": null, "topic": null, "contact:email": null, "contact:phone": null, "description": null, "email": null, "wikipedia": null, "addr:housename": null, "wheelchair:description": null, "operator:type": "public", "operator": "Staatsinstitut für die Ausbildung von Fachlehrern, Abt. II", "toilets:wheelchair": null, "internet_access:fee": null, "internet_access": "wlan", "contact:website": null, "wheelchair": null, "website": "https://stif2.de/", "phone": null, "name": "Staatsinstitut für die Ausbildung von Fachlehrern", "college": null, "check_date": "2026-03-01", "amenity": "college", "addr:street": "Am Stadtpark", "addr:postcode": "81243", "addr:housenumber": "20", "addr:country": null, "addr:city": "München" }, "geometry": { "type": "Point", "coordinates": [ 11.4510004, 48.1419814 ] } },
{ "type": "Feature", "properties": { "full_id": "n10208108717", "osm_id": "10208108717", "osm_type": "node", "check_date:opening_hours": null, "operator:wikipedia": null, "operator:wikidata": null, "level:ref": null, "level": null, "opening_hours": null, "contact:mobile": null, "fax": null, "brand:wikidata": null, "religion": null, "name:zh": null, "name:es": null, "short_name": null, "roof:shape": null, "loc_name": null, "full_name": null, "alt_website": null, "wikidata": null, "name:en": null, "name:de": null, "internet_access:ssid": null, "education": null, "fee": null, "contact:fax": null, "topic": null, "contact:email": null, "contact:phone": null, "description": null, "email": null, "wikipedia": null, "addr:housename": null, "wheelchair:description": null, "operator:type": null, "operator": null, "toilets:wheelchair": null, "internet_access:fee": null, "internet_access": null, "contact:website": null, "wheelchair": null, "website": "https://www.hpl-lotz.de/", "phone": "+49 89 59 39 62", "name": "Heilpraktiker-Ausbildung - Lehrinstitut LOTZ", "college": null, "check_date": null, "amenity": "college", "addr:street": "Prielmayerstraße", "addr:postcode": "80335", "addr:housenumber": "3", "addr:country": null, "addr:city": null }, "geometry": { "type": "Point", "coordinates": [ 11.5622811, 48.1408681 ] } },
{ "type": "Feature", "properties": { "full_id": "n10565230060", "osm_id": "10565230060", "osm_type": "node", "check_date:opening_hours": null, "operator:wikipedia": null, "operator:wikidata": null, "level:ref": null, "level": null, "opening_hours": "Mo-Fr 11:00-19:00; Sa 10:00-19:00", "contact:mobile": "+49 151 100 282 42", "fax": null, "brand:wikidata": null, "religion": null, "name:zh": null, "name:es": null, "short_name": null, "roof:shape": null, "loc_name": null, "full_name": null, "alt_website": null, "wikidata": null, "name:en": null, "name:de": null, "internet_access:ssid": null, "education": null, "fee": null, "contact:fax": null, "topic": null, "contact:email": "info@you-act.de", "contact:phone": null, "description": null, "email": null, "wikipedia": null, "addr:housename": null, "wheelchair:description": null, "operator:type": null, "operator": null, "toilets:wheelchair": null, "internet_access:fee": null, "internet_access": null, "contact:website": "https://www.you-act.de/", "wheelchair": null, "website": null, "phone": null, "name": "YouAkt", "college": "acting_school", "check_date": null, "amenity": "college", "addr:street": "Kirchenstraße", "addr:postcode": "81675", "addr:housenumber": "89a", "addr:country": "DE", "addr:city": "München" }, "geometry": { "type": "Point", "coordinates": [ 11.6090568, 48.1334084 ] } },
{ "type": "Feature", "properties": { "full_id": "n10679438705", "osm_id": "10679438705", "osm_type": "node", "check_date:opening_hours": null, "operator:wikipedia": null, "operator:wikidata": null, "level:ref": null, "level": null, "opening_hours": null, "contact:mobile": null, "fax": null, "brand:wikidata": null, "religion": null, "name:zh": null, "name:es": null, "short_name": null, "roof:shape": null, "loc_name": null, "full_name": null, "alt_website": null, "wikidata": null, "name:en": null, "name:de": null, "internet_access:ssid": null, "education": null, "fee": null, "contact:fax": null, "topic": null, "contact:email": null, "contact:phone": null, "description": null, "email": null, "wikipedia": null, "addr:housename": null, "wheelchair:description": null, "operator:type": null, "operator": null, "toilets:wheelchair": null, "internet_access:fee": null, "internet_access": null, "contact:website": null, "wheelchair": null, "website": "https://evangelische-fachakademie.de/", "phone": null, "name": "evangelische Fachakademie für Sozialpädagogik - Diakonie München Oberbayern", "college": null, "check_date": null, "amenity": "college", "addr:street": null, "addr:postcode": null, "addr:housenumber": null, "addr:country": null, "addr:city": null }, "geometry": { "type": "Point", "coordinates": [ 11.5407624, 48.1477407 ] } },
{ "type": "Feature", "properties": { "full_id": "n10764119931", "osm_id": "10764119931", "osm_type": "node", "check_date:opening_hours": null, "operator:wikipedia": null, "operator:wikidata": null, "level:ref": null, "level": null, "opening_hours": null, "contact:mobile": null, "fax": null, "brand:wikidata": null, "religion": null, "name:zh": null, "name:es": null, "short_name": null, "roof:shape": null, "loc_name": null, "full_name": null, "alt_website": null, "wikidata": null, "name:en": null, "name:de": null, "internet_access:ssid": null, "education": null, "fee": null, "contact:fax": null, "topic": null, "contact:email": null, "contact:phone": null, "description": null, "email": null, "wikipedia": null, "addr:housename": null, "wheelchair:description": null, "operator:type": null, "operator": "Münchner Volkshochschule GmbH", "toilets:wheelchair": null, "internet_access:fee": null, "internet_access": null, "contact:website": null, "wheelchair": "yes", "website": "https://www.mvhs.de/", "phone": null, "name": "Volkshochschule", "college": "adult_education", "check_date": "2026-04-28", "amenity": "college", "addr:street": "Belgradstraße", "addr:postcode": "80804", "addr:housenumber": "108", "addr:country": null, "addr:city": "München" }, "geometry": { "type": "Point", "coordinates": [ 11.5736209, 48.1723638 ] } },
{ "type": "Feature", "properties": { "full_id": "n10813000251", "osm_id": "10813000251", "osm_type": "node", "check_date:opening_hours": null, "operator:wikipedia": null, "operator:wikidata": null, "level:ref": null, "level": null, "opening_hours": null, "contact:mobile": null, "fax": null, "brand:wikidata": null, "religion": null, "name:zh": null, "name:es": null, "short_name": null, "roof:shape": null, "loc_name": null, "full_name": null, "alt_website": null, "wikidata": "Q1664809", "name:en": null, "name:de": null, "internet_access:ssid": null, "education": null, "fee": null, "contact:fax": "+49 89 28638-2506", "topic": null, "contact:email": "BayerischeGeschichte@lmu.de", "contact:phone": "+49 89 28638-2507", "description": "Institut für Bayerische Geschichte der Ludwig-Maximilians-Universität München", "email": null, "wikipedia": "de:Institut für Bayerische Geschichte", "addr:housename": null, "wheelchair:description": null, "operator:type": null, "operator": null, "toilets:wheelchair": null, "internet_access:fee": null, "internet_access": null, "contact:website": "https://www.bayerischegeschichte.uni-muenchen.de/", "wheelchair": null, "website": null, "phone": null, "name": "Institut für Bayerische Geschichte", "college": null, "check_date": null, "amenity": "university", "addr:street": "Ludwigstraße", "addr:postcode": "80539", "addr:housenumber": "14", "addr:country": "DE", "addr:city": "München" }, "geometry": { "type": "Point", "coordinates": [ 11.579695, 48.1464292 ] } },
{ "type": "Feature", "properties": { "full_id": "n11032989677", "osm_id": "11032989677", "osm_type": "node", "check_date:opening_hours": null, "operator:wikipedia": null, "operator:wikidata": null, "level:ref": null, "level": null, "opening_hours": null, "contact:mobile": null, "fax": null, "brand:wikidata": null, "religion": null, "name:zh": null, "name:es": null, "short_name": null, "roof:shape": null, "loc_name": null, "full_name": null, "alt_website": null, "wikidata": null, "name:en": null, "name:de": null, "internet_access:ssid": null, "education": null, "fee": null, "contact:fax": null, "topic": null, "contact:email": null, "contact:phone": null, "description": null, "email": null, "wikipedia": null, "addr:housename": null, "wheelchair:description": null, "operator:type": "private", "operator": "FOM Hochschule für Oekonomie & Management gemeinnützige Gesellschaft mbH", "toilets:wheelchair": "yes", "internet_access:fee": null, "internet_access": "wlan", "contact:website": null, "wheelchair": "yes", "website": "https://www.fom.de/de/Hochschulzentrum/muenchen.html", "phone": null, "name": "FOM Hochschule für Oekonomie & Management", "college": null, "check_date": null, "amenity": "college", "addr:street": null, "addr:postcode": null, "addr:housenumber": null, "addr:country": null, "addr:city": null }, "geometry": { "type": "Point", "coordinates": [ 11.5549002, 48.1428916 ] } },
{ "type": "Feature", "properties": { "full_id": "n11193526252", "osm_id": "11193526252", "osm_type": "node", "check_date:opening_hours": null, "operator:wikipedia": null, "operator:wikidata": null, "level:ref": null, "level": null, "opening_hours": null, "contact:mobile": null, "fax": null, "brand:wikidata": null, "religion": null, "name:zh": null, "name:es": null, "short_name": null, "roof:shape": null, "loc_name": null, "full_name": null, "alt_website": null, "wikidata": "Q1311824", "name:en": null, "name:de": null, "internet_access:ssid": null, "education": null, "fee": null, "contact:fax": null, "topic": null, "contact:email": null, "contact:phone": null, "description": null, "email": null, "wikipedia": "de:Munich Business School", "addr:housename": null, "wheelchair:description": null, "operator:type": null, "operator": null, "toilets:wheelchair": null, "internet_access:fee": null, "internet_access": null, "contact:website": "https://www.munich-business-school.de/", "wheelchair": null, "website": null, "phone": null, "name": "Munich Business School", "college": null, "check_date": "2025-11-11", "amenity": "college", "addr:street": "Elsenheimerstraße", "addr:postcode": "80687", "addr:housenumber": "61", "addr:country": "DE", "addr:city": "München" }, "geometry": { "type": "Point", "coordinates": [ 11.524521, 48.1360415 ] } },
{ "type": "Feature", "properties": { "full_id": "n11218158037", "osm_id": "11218158037", "osm_type": "node", "check_date:opening_hours": null, "operator:wikipedia": null, "operator:wikidata": null, "level:ref": null, "level": null, "opening_hours": null, "contact:mobile": null, "fax": null, "brand:wikidata": null, "religion": null, "name:zh": null, "name:es": null, "short_name": "DAA", "roof:shape": null, "loc_name": null, "full_name": null, "alt_website": null, "wikidata": null, "name:en": null, "name:de": null, "internet_access:ssid": null, "education": null, "fee": null, "contact:fax": null, "topic": null, "contact:email": null, "contact:phone": null, "description": null, "email": null, "wikipedia": null, "addr:housename": null, "wheelchair:description": null, "operator:type": null, "operator": null, "toilets:wheelchair": null, "internet_access:fee": "customers", "internet_access": "wlan", "contact:website": null, "wheelchair": null, "website": "https://daa-bayern.de/muenchen/", "phone": null, "name": "Deutsche Angestellten-Akademie", "college": null, "check_date": null, "amenity": "college", "addr:street": "Marsstraße", "addr:postcode": "80335", "addr:housenumber": "42", "addr:country": null, "addr:city": null }, "geometry": { "type": "Point", "coordinates": [ 11.5547771, 48.1447973 ] } },
{ "type": "Feature", "properties": { "full_id": "n11401594538", "osm_id": "11401594538", "osm_type": "node", "check_date:opening_hours": null, "operator:wikipedia": null, "operator:wikidata": null, "level:ref": null, "level": null, "opening_hours": null, "contact:mobile": null, "fax": null, "brand:wikidata": null, "religion": null, "name:zh": null, "name:es": null, "short_name": null, "roof:shape": null, "loc_name": null, "full_name": null, "alt_website": null, "wikidata": null, "name:en": null, "name:de": null, "internet_access:ssid": null, "education": null, "fee": null, "contact:fax": null, "topic": null, "contact:email": null, "contact:phone": null, "description": null, "email": null, "wikipedia": null, "addr:housename": null, "wheelchair:description": null, "operator:type": null, "operator": null, "toilets:wheelchair": null, "internet_access:fee": "customers", "internet_access": "wlan", "contact:website": null, "wheelchair": "yes", "website": "https://www.hmtm.de", "phone": "+49 89 28903", "name": "Hochschule für Musik und Theater — Gebäude D", "college": null, "check_date": "2024-07-01", "amenity": "university", "addr:street": "Arcisstraße", "addr:postcode": "80333", "addr:housenumber": "12", "addr:country": "DE", "addr:city": "München" }, "geometry": { "type": "Point", "coordinates": [ 11.568756, 48.1458072 ] } },
{ "type": "Feature", "properties": { "full_id": "n11586525032", "osm_id": "11586525032", "osm_type": "node", "check_date:opening_hours": null, "operator:wikipedia": null, "operator:wikidata": null, "level:ref": null, "level": null, "opening_hours": null, "contact:mobile": null, "fax": null, "brand:wikidata": null, "religion": null, "name:zh": null, "name:es": null, "short_name": null, "roof:shape": null, "loc_name": null, "full_name": null, "alt_website": null, "wikidata": null, "name:en": null, "name:de": null, "internet_access:ssid": null, "education": null, "fee": null, "contact:fax": null, "topic": null, "contact:email": null, "contact:phone": null, "description": null, "email": null, "wikipedia": null, "addr:housename": null, "wheelchair:description": null, "operator:type": null, "operator": null, "toilets:wheelchair": null, "internet_access:fee": null, "internet_access": null, "contact:website": null, "wheelchair": null, "website": null, "phone": null, "name": "TÜV Pluspunkt", "college": null, "check_date": null, "amenity": "college", "addr:street": "Rüdesheimer Straße", "addr:postcode": "80686", "addr:housenumber": "11", "addr:country": "DE", "addr:city": "München" }, "geometry": { "type": "Point", "coordinates": [ 11.5223586, 48.1315799 ] } },
{ "type": "Feature", "properties": { "full_id": "n11883089539", "osm_id": "11883089539", "osm_type": "node", "check_date:opening_hours": null, "operator:wikipedia": null, "operator:wikidata": null, "level:ref": null, "level": null, "opening_hours": null, "contact:mobile": null, "fax": null, "brand:wikidata": null, "religion": null, "name:zh": null, "name:es": null, "short_name": null, "roof:shape": null, "loc_name": null, "full_name": null, "alt_website": null, "wikidata": null, "name:en": null, "name:de": null, "internet_access:ssid": null, "education": null, "fee": null, "contact:fax": null, "topic": null, "contact:email": null, "contact:phone": null, "description": null, "email": "dekanat-fk14@hm.edu", "wikipedia": null, "addr:housename": null, "wheelchair:description": null, "operator:type": "public", "operator": "Hochschule München", "toilets:wheelchair": null, "internet_access:fee": null, "internet_access": null, "contact:website": null, "wheelchair": null, "website": "https://tourismus.hm.edu/", "phone": null, "name": "Fakultät für Tourismus (FK14)", "college": null, "check_date": null, "amenity": "university", "addr:street": "Schachenmeierstraße", "addr:postcode": "80636", "addr:housenumber": "35", "addr:country": null, "addr:city": "München" }, "geometry": { "type": "Point", "coordinates": [ 11.5463035, 48.1538669 ] } },
{ "type": "Feature", "properties": { "full_id": "n11927992072", "osm_id": "11927992072", "osm_type": "node", "check_date:opening_hours": null, "operator:wikipedia": null, "operator:wikidata": null, "level:ref": null, "level": null, "opening_hours": null, "contact:mobile": null, "fax": null, "brand:wikidata": null, "religion": null, "name:zh": null, "name:es": null, "short_name": null, "roof:shape": null, "loc_name": null, "full_name": null, "alt_website": null, "wikidata": null, "name:en": null, "name:de": null, "internet_access:ssid": null, "education": null, "fee": null, "contact:fax": null, "topic": null, "contact:email": null, "contact:phone": null, "description": null, "email": null, "wikipedia": null, "addr:housename": null, "wheelchair:description": null, "operator:type": null, "operator": null, "toilets:wheelchair": null, "internet_access:fee": null, "internet_access": null, "contact:website": null, "wheelchair": null, "website": null, "phone": null, "name": "Volkshochschule Neuhausen", "college": null, "check_date": null, "amenity": "college", "addr:street": "Nymphenburger Straße", "addr:postcode": null, "addr:housenumber": "171b", "addr:country": null, "addr:city": "München" }, "geometry": { "type": "Point", "coordinates": [ 11.5318306, 48.1552456 ] } },
{ "type": "Feature", "properties": { "full_id": "n12400127126", "osm_id": "12400127126", "osm_type": "node", "check_date:opening_hours": null, "operator:wikipedia": "https://de.wikipedia.org/wiki/Bayerisches_Zentrum_f%C3%BCr_Innovative_Lehre", "operator:wikidata": "Q126204726", "level:ref": "4. OG", "level": "4", "opening_hours": null, "contact:mobile": null, "fax": null, "brand:wikidata": null, "religion": null, "name:zh": null, "name:es": null, "short_name": null, "roof:shape": null, "loc_name": null, "full_name": null, "alt_website": null, "wikidata": null, "name:en": null, "name:de": null, "internet_access:ssid": null, "education": null, "fee": null, "contact:fax": null, "topic": null, "contact:email": null, "contact:phone": null, "description": null, "email": "info@bayziel.de", "wikipedia": null, "addr:housename": null, "wheelchair:description": null, "operator:type": "university", "operator": "BayZiel - Bayerisches Zentrum für Innovative Lehre", "toilets:wheelchair": null, "internet_access:fee": null, "internet_access": null, "contact:website": null, "wheelchair": null, "website": "https://bayziel.de/", "phone": null, "name": "BayZiel - Bayerisches Zentrum für Innovative Lehre", "college": null, "check_date": null, "amenity": "university", "addr:street": "Atelierstraße", "addr:postcode": "81671", "addr:housenumber": "1", "addr:country": null, "addr:city": "München" }, "geometry": { "type": "Point", "coordinates": [ 11.6057582, 48.1255528 ] } },
{ "type": "Feature", "properties": { "full_id": "n12966443431", "osm_id": "12966443431", "osm_type": "node", "check_date:opening_hours": null, "operator:wikipedia": null, "operator:wikidata": null, "level:ref": null, "level": null, "opening_hours": null, "contact:mobile": null, "fax": null, "brand:wikidata": null, "religion": null, "name:zh": null, "name:es": null, "short_name": null, "roof:shape": null, "loc_name": null, "full_name": null, "alt_website": null, "wikidata": null, "name:en": null, "name:de": null, "internet_access:ssid": null, "education": null, "fee": null, "contact:fax": null, "topic": null, "contact:email": null, "contact:phone": null, "description": null, "email": null, "wikipedia": null, "addr:housename": null, "wheelchair:description": null, "operator:type": "religious", "operator": "Kirchliche Stiftung des öffentlichen Rechts „Katholische Bildungsstätten für Sozialberufe in Bayern“", "toilets:wheelchair": null, "internet_access:fee": "customers", "internet_access": "wlan", "contact:website": null, "wheelchair": null, "website": "https://www.ksh-muenchen.de/", "phone": null, "name": "Katholische Stiftungshochschule München", "college": null, "check_date": null, "amenity": "college", "addr:street": "Preysingstraße", "addr:postcode": "81667", "addr:housenumber": "95", "addr:country": null, "addr:city": "München" }, "geometry": { "type": "Point", "coordinates": [ 11.6034695, 48.1327994 ] } },
{ "type": "Feature", "properties": { "full_id": "n13047925747", "osm_id": "13047925747", "osm_type": "node", "check_date:opening_hours": null, "operator:wikipedia": null, "operator:wikidata": null, "level:ref": null, "level": null, "opening_hours": null, "contact:mobile": null, "fax": null, "brand:wikidata": null, "religion": null, "name:zh": null, "name:es": null, "short_name": null, "roof:shape": null, "loc_name": null, "full_name": null, "alt_website": null, "wikidata": null, "name:en": null, "name:de": null, "internet_access:ssid": null, "education": null, "fee": null, "contact:fax": null, "topic": null, "contact:email": null, "contact:phone": null, "description": null, "email": null, "wikipedia": null, "addr:housename": null, "wheelchair:description": null, "operator:type": null, "operator": null, "toilets:wheelchair": null, "internet_access:fee": null, "internet_access": null, "contact:website": null, "wheelchair": null, "website": "https://www.campus-m-university.de/", "phone": null, "name": "Campus M University, Studienzentrum München", "college": null, "check_date": null, "amenity": "university", "addr:street": null, "addr:postcode": null, "addr:housenumber": null, "addr:country": null, "addr:city": null }, "geometry": { "type": "Point", "coordinates": [ 11.5440989, 48.1623086 ] } },
{ "type": "Feature", "properties": { "full_id": "n13048046005", "osm_id": "13048046005", "osm_type": "node", "check_date:opening_hours": null, "operator:wikipedia": null, "operator:wikidata": null, "level:ref": null, "level": null, "opening_hours": null, "contact:mobile": null, "fax": null, "brand:wikidata": null, "religion": null, "name:zh": null, "name:es": null, "short_name": null, "roof:shape": null, "loc_name": null, "full_name": null, "alt_website": null, "wikidata": null, "name:en": null, "name:de": null, "internet_access:ssid": null, "education": null, "fee": null, "contact:fax": null, "topic": null, "contact:email": null, "contact:phone": null, "description": null, "email": null, "wikipedia": null, "addr:housename": null, "wheelchair:description": null, "operator:type": null, "operator": null, "toilets:wheelchair": null, "internet_access:fee": null, "internet_access": null, "contact:website": null, "wheelchair": null, "website": "https://www.new-european-college.com/", "phone": null, "name": "New European College GmbH", "college": null, "check_date": null, "amenity": "college", "addr:street": null, "addr:postcode": null, "addr:housenumber": null, "addr:country": null, "addr:city": null }, "geometry": { "type": "Point", "coordinates": [ 11.5397477, 48.0931506 ] } },
{ "type": "Feature", "properties": { "full_id": "n13048047104", "osm_id": "13048047104", "osm_type": "node", "check_date:opening_hours": null, "operator:wikipedia": null, "operator:wikidata": null, "level:ref": null, "level": null, "opening_hours": null, "contact:mobile": null, "fax": null, "brand:wikidata": null, "religion": null, "name:zh": null, "name:es": null, "short_name": null, "roof:shape": null, "loc_name": null, "full_name": null, "alt_website": null, "wikidata": null, "name:en": null, "name:de": null, "internet_access:ssid": null, "education": null, "fee": null, "contact:fax": null, "topic": null, "contact:email": null, "contact:phone": null, "description": null, "email": null, "wikipedia": null, "addr:housename": null, "wheelchair:description": null, "operator:type": null, "operator": null, "toilets:wheelchair": null, "internet_access:fee": null, "internet_access": null, "contact:website": null, "wheelchair": null, "website": "https://www.amdnet.de/standort/muenchen/", "phone": null, "name": "AMD Akademie Mode & Design", "college": null, "check_date": "2026-05-04", "amenity": "college", "addr:street": null, "addr:postcode": null, "addr:housenumber": null, "addr:country": null, "addr:city": null }, "geometry": { "type": "Point", "coordinates": [ 11.5547531, 48.1590164 ] } },
{ "type": "Feature", "properties": { "full_id": "n13048068267", "osm_id": "13048068267", "osm_type": "node", "check_date:opening_hours": null, "operator:wikipedia": null, "operator:wikidata": null, "level:ref": null, "level": null, "opening_hours": null, "contact:mobile": null, "fax": null, "brand:wikidata": null, "religion": null, "name:zh": null, "name:es": null, "short_name": null, "roof:shape": null, "loc_name": null, "full_name": null, "alt_website": null, "wikidata": null, "name:en": null, "name:de": null, "internet_access:ssid": null, "education": null, "fee": null, "contact:fax": null, "topic": null, "contact:email": null, "contact:phone": null, "description": null, "email": null, "wikipedia": null, "addr:housename": null, "wheelchair:description": null, "operator:type": null, "operator": null, "toilets:wheelchair": null, "internet_access:fee": null, "internet_access": null, "contact:website": null, "wheelchair": null, "website": null, "phone": null, "name": "Globe Business College Munich", "college": null, "check_date": null, "amenity": "college", "addr:street": null, "addr:postcode": null, "addr:housenumber": null, "addr:country": null, "addr:city": null }, "geometry": { "type": "Point", "coordinates": [ 11.549699, 48.1435664 ] } },
{ "type": "Feature", "properties": { "full_id": "n13052091964", "osm_id": "13052091964", "osm_type": "node", "check_date:opening_hours": null, "operator:wikipedia": null, "operator:wikidata": null, "level:ref": null, "level": null, "opening_hours": null, "contact:mobile": null, "fax": null, "brand:wikidata": null, "religion": null, "name:zh": null, "name:es": null, "short_name": null, "roof:shape": null, "loc_name": null, "full_name": null, "alt_website": null, "wikidata": null, "name:en": null, "name:de": null, "internet_access:ssid": null, "education": null, "fee": null, "contact:fax": null, "topic": null, "contact:email": null, "contact:phone": null, "description": null, "email": null, "wikipedia": null, "addr:housename": null, "wheelchair:description": null, "operator:type": null, "operator": null, "toilets:wheelchair": null, "internet_access:fee": null, "internet_access": null, "contact:website": null, "wheelchair": null, "website": null, "phone": null, "name": "International School of Management", "college": null, "check_date": null, "amenity": "college", "addr:street": null, "addr:postcode": null, "addr:housenumber": null, "addr:country": null, "addr:city": null }, "geometry": { "type": "Point", "coordinates": [ 11.5615294, 48.1444005 ] } },
{ "type": "Feature", "properties": { "full_id": "n13370246205", "osm_id": "13370246205", "osm_type": "node", "check_date:opening_hours": null, "operator:wikipedia": null, "operator:wikidata": null, "level:ref": null, "level": null, "opening_hours": null, "contact:mobile": null, "fax": null, "brand:wikidata": null, "religion": null, "name:zh": null, "name:es": null, "short_name": null, "roof:shape": null, "loc_name": null, "full_name": null, "alt_website": null, "wikidata": null, "name:en": null, "name:de": null, "internet_access:ssid": null, "education": null, "fee": null, "contact:fax": null, "topic": null, "contact:email": null, "contact:phone": null, "description": "Munich International Summer University", "email": null, "wikipedia": null, "addr:housename": null, "wheelchair:description": null, "operator:type": null, "operator": null, "toilets:wheelchair": null, "internet_access:fee": null, "internet_access": null, "contact:website": null, "wheelchair": null, "website": null, "phone": null, "name": "LMU MISU", "college": null, "check_date": null, "amenity": "university", "addr:street": null, "addr:postcode": null, "addr:housenumber": null, "addr:country": null, "addr:city": null }, "geometry": { "type": "Point", "coordinates": [ 11.5778936, 48.1517083 ] } },
{ "type": "Feature", "properties": { "full_id": "n13794933866", "osm_id": "13794933866", "osm_type": "node", "check_date:opening_hours": null, "operator:wikipedia": null, "operator:wikidata": null, "level:ref": null, "level": null, "opening_hours": null, "contact:mobile": null, "fax": null, "brand:wikidata": null, "religion": null, "name:zh": null, "name:es": null, "short_name": null, "roof:shape": null, "loc_name": null, "full_name": null, "alt_website": null, "wikidata": null, "name:en": null, "name:de": null, "internet_access:ssid": null, "education": null, "fee": null, "contact:fax": null, "topic": null, "contact:email": null, "contact:phone": null, "description": null, "email": null, "wikipedia": null, "addr:housename": null, "wheelchair:description": null, "operator:type": null, "operator": null, "toilets:wheelchair": null, "internet_access:fee": null, "internet_access": null, "contact:website": null, "wheelchair": null, "website": null, "phone": null, "name": "Hochschule München University of Applied Sciences", "college": null, "check_date": "2026-05-04", "amenity": "college", "addr:street": null, "addr:postcode": null, "addr:housenumber": null, "addr:country": null, "addr:city": null }, "geometry": { "type": "Point", "coordinates": [ 11.5568853, 48.1565075 ] } },
{ "type": "Feature", "properties": { "full_id": "n14106196801", "osm_id": "14106196801", "osm_type": "node", "check_date:opening_hours": "2026-08-16", "operator:wikipedia": null, "operator:wikidata": null, "level:ref": null, "level": "1", "opening_hours": "Mo-Fr 06:00-15:00", "contact:mobile": null, "fax": null, "brand:wikidata": null, "religion": null, "name:zh": null, "name:es": null, "short_name": null, "roof:shape": null, "loc_name": null, "full_name": null, "alt_website": null, "wikidata": null, "name:en": "Chair of Concrete Structures", "name:de": null, "internet_access:ssid": null, "education": "university", "fee": null, "contact:fax": null, "topic": null, "contact:email": null, "contact:phone": null, "description": null, "email": "massivbau@tum.de", "wikipedia": null, "addr:housename": null, "wheelchair:description": null, "operator:type": null, "operator": null, "toilets:wheelchair": null, "internet_access:fee": null, "internet_access": null, "contact:website": null, "wheelchair": null, "website": "http://cee.ed.tum.de/mb/startseite", "phone": "+49 89 28923039", "name": "Lehrstuhl für Massivbau", "college": null, "check_date": "2026-08-19", "amenity": "university", "addr:street": "Theresienstraße", "addr:postcode": "80333", "addr:housenumber": "90", "addr:country": null, "addr:city": null }, "geometry": { "type": "Point", "coordinates": [ 11.5692545, 48.1499195 ] } }
]
}
