{"type":"FeatureCollection","features":[{"type":"Feature","properties":{},"geometry":{"type":"MultiLineString","coordinates":[[[11.5863161,48.0967425],[11.5865947,48.0968227]],[[11.6301979,48.0935883],[11.6302005,48.0936123],[11.6299124,48.0936342],[11.629909,48.0936109],[11.629929,48.0936092],[11.629945,48.093608]],[[11.5881554,48.1299394],[11.5883467,48.1298938],[11.5884306,48.1298695]],[[11.5358533,48.1107738],[11.5358553,48.1109538]],[[11.5398142,48.1334149],[11.5398354,48.1334141],[11.53985,48.1334136],[11.5398566,48.1334134],[11.5400251,48.1334047],[11.5400695,48.1334024]],[[11.6301979,48.0935883],[11.6301725,48.0935911]],[[11.5961754,48.1111958],[11.596112,48.1113333]],[[11.5649437,48.1390958],[11.5647709,48.1391097]],[[11.5592667,48.1409603],[11.5592799,48.1410502]],[[11.561183,48.140702],[11.5614177,48.1406976]],[[11.5614573,48.1394536],[11.5613093,48.1394538]],[[11.5609567,48.1393463],[11.5606919,48.1393324]],[[11.5613093,48.1394538],[11.5612305,48.1394457],[11.5611503,48.1394593]],[[11.5610618,48.1396562],[11.5610706,48.139726],[11.5610753,48.1397639]],[[11.5592799,48.1410502],[11.5592817,48.1410626],[11.5592841,48.1410808],[11.5592959,48.1411735],[11.5593201,48.1413631]],[[11.5298188,48.1822233],[11.5298528,48.1822109],[11.5298866,48.1821987],[11.5299669,48.1822847],[11.529979,48.1822805],[11.5299991,48.1822726],[11.5300116,48.1822681],[11.5300283,48.1823516],[11.5308381,48.1832115],[11.530815,48.1832207],[11.5307936,48.1832294],[11.5307721,48.1832387],[11.5298188,48.1822233]],[[11.5487594,48.1419555],[11.5488329,48.1419511]],[[11.5486787,48.1419611],[11.5486217,48.1419647]],[[11.5654917,48.1380245],[11.5655113,48.1381361]],[[11.576096,48.137241],[11.5760554,48.1372497],[11.5760212,48.1372569],[11.5757913,48.1373058],[11.5755195,48.1373636],[11.5753585,48.1373978],[11.575139,48.1374444],[11.575095,48.1374538],[11.5750527,48.1374628]],[[11.5757477,48.137139],[11.5756071,48.1371689]],[[11.5755681,48.138348],[11.5755881,48.1383445],[11.5756263,48.1383377],[11.5756092,48.1382896],[11.5755507,48.1382153]],[[11.5609732,48.1394643],[11.5607777,48.139466],[11.5606262,48.1394548]],[[11.5609532,48.1412608],[11.5609803,48.141358]],[[11.5919405,48.1299436],[11.5918367,48.1300115]],[[11.5606262,48.1394548],[11.5604876,48.1394474]],[[11.5482921,48.1419885],[11.5481812,48.1419951]],[[11.5482921,48.1419885],[11.5483113,48.1419735],[11.54839,48.1419684]],[[11.5190418,48.1435806],[11.5192704,48.143572]],[[11.6061541,48.0919844],[11.6061485,48.092003],[11.6061824,48.0920076]],[[11.5703605,48.0932914],[11.570327,48.0933298],[11.5702728,48.0933924],[11.5702179,48.0934557]],[[11.4613823,48.1499886],[11.46127,48.1500231]],[[11.4614746,48.1501275],[11.4613572,48.1501622]],[[11.5875269,48.0970957],[11.5872166,48.0970216]],[[11.4619541,48.1505168],[11.4619701,48.1505425]],[[11.6464639,48.1016892],[11.6463032,48.1012905],[11.6462067,48.101051],[11.6461847,48.1009963],[11.6460457,48.1006513],[11.6458923,48.1006789],[11.6460313,48.1010239],[11.6460533,48.1010786],[11.6461498,48.1013181],[11.6463105,48.1017168],[11.6464639,48.1016892]],[[11.6137664,48.1914024],[11.6139119,48.1913636],[11.6140598,48.1913241]],[[11.519938,48.1435193],[11.5196993,48.1435336]],[[11.5270761,48.0800864],[11.5270912,48.0800856]],[[11.5066649,48.1806368],[11.5066674,48.1806642],[11.5067867,48.180774],[11.5068278,48.1807831],[11.5070121,48.1809445]],[[11.658446,48.1009382],[11.6585368,48.1009017],[11.6586706,48.1008473],[11.6587632,48.1008077]],[[11.5489542,48.1392029],[11.5489309,48.1392561]],[[11.5957095,48.1182822],[11.5956819,48.1181743]],[[11.5592803,48.1473347],[11.5592247,48.1472433]],[[11.5582842,48.1292739],[11.5581623,48.1292171]],[[11.6334373,48.1339836],[11.6335614,48.1339717]],[[11.6331503,48.1340132],[11.6330256,48.1340252]],[[11.4438449,48.1489556],[11.4439079,48.1490087]],[[11.6793325,48.1441163],[11.6793565,48.1440417]],[[11.6792663,48.1442413],[11.6791503,48.144227]],[[11.6055665,48.1278881],[11.6055062,48.1278487]],[[11.6053967,48.1279996],[11.6053387,48.1279593]],[[11.5283142,48.1772477],[11.5283195,48.1771894]],[[11.575649,48.1372142],[11.5756302,48.1372173],[11.5754653,48.1372531]],[[11.5752009,48.1371631],[11.5751773,48.1371131]],[[11.5752803,48.1370767],[11.5753705,48.1370582]],[[11.6394728,48.1090079],[11.6394727,48.1090781],[11.6394725,48.1091799],[11.6394723,48.1092521]],[[11.6391295,48.1090075],[11.6391328,48.1090785],[11.6391292,48.10918],[11.639129,48.1092525]],[[11.5485811,48.1209944],[11.5485867,48.1210939]],[[11.5676905,48.1335281],[11.5677497,48.1334343]],[[11.6133905,48.1246503],[11.6133914,48.1246779],[11.613394,48.1247151]],[[11.6129619,48.1247768],[11.6129589,48.1246989],[11.6129602,48.1246355]],[[11.5797245,48.1150488],[11.5796144,48.1150738]],[[11.5410152,48.2138558],[11.541082,48.2138551]],[[11.5487594,48.1419555],[11.5487078,48.1419386],[11.5486577,48.141942]],[[11.5651654,48.1391752],[11.5650924,48.139136],[11.5649437,48.1390958]],[[11.5655387,48.1390854],[11.5655663,48.1390741],[11.5655947,48.1390499],[11.5656107,48.1390364],[11.5656566,48.1390134],[11.5657075,48.1389959],[11.565759,48.1389887]],[[11.5658891,48.1395468],[11.5659501,48.1395481],[11.5660304,48.139526],[11.5660879,48.1394998]],[[11.5659046,48.1392541],[11.5659217,48.1392799],[11.5659351,48.1393067],[11.5659449,48.1393341],[11.5659508,48.139362],[11.5659527,48.1393846],[11.5659521,48.1394072],[11.5659491,48.1394297],[11.5659436,48.139452],[11.5659356,48.139474],[11.5659233,48.1394991],[11.5659077,48.1395234],[11.5658891,48.1395468],[11.5658579,48.1395777],[11.5658213,48.1396058],[11.5657798,48.1396308],[11.5657472,48.1396466],[11.5656851,48.1396698],[11.5656348,48.1396829],[11.5655827,48.1396919],[11.5655292,48.1396969],[11.5654825,48.1396978],[11.5654358,48.1396955],[11.5653898,48.1396901],[11.5653448,48.1396815],[11.5653376,48.1396799],[11.5653073,48.1396718],[11.5652778,48.1396623],[11.5652495,48.1396514],[11.5652223,48.1396392],[11.5651966,48.1396258],[11.5651723,48.1396111],[11.5651441,48.1395935],[11.5651243,48.1395747],[11.5651018,48.1395527],[11.5650822,48.1395294],[11.5650647,48.1395034],[11.5650509,48.1394764],[11.5650409,48.1394486],[11.5650353,48.1394231],[11.5650328,48.1393972],[11.5650337,48.1393714],[11.5650377,48.1393457],[11.5650451,48.1393203],[11.5650556,48.1392954],[11.5650707,48.1392688],[11.5650894,48.1392433],[11.5651115,48.1392191],[11.565137,48.1391963],[11.5651654,48.1391752],[11.5651919,48.1391586],[11.5652202,48.1391436],[11.5652502,48.13913],[11.5652685,48.1391228],[11.5652873,48.1391162],[11.5653202,48.1391063],[11.5653542,48.1390981],[11.5653891,48.1390918],[11.5654003,48.1390902],[11.5654116,48.1390887],[11.5654255,48.1390872],[11.5654395,48.139086],[11.565455,48.1390849],[11.5654692,48.1390843],[11.5655011,48.1390839],[11.565523,48.1390846],[11.5655387,48.1390854],[11.5655804,48.1390895],[11.5656213,48.1390961],[11.5656612,48.1391052],[11.5656997,48.1391167],[11.5657364,48.1391305],[11.5657711,48.1391464],[11.5658034,48.1391645],[11.5658333,48.1391845],[11.5658602,48.1392062],[11.5658841,48.1392295],[11.5659046,48.1392541]],[[11.613989,48.1914531],[11.6139373,48.1913691]],[[11.5334182,48.1534473],[11.5334625,48.1533526]],[[11.55481,48.1399208],[11.5547571,48.1399257]],[[11.5548236,48.1397825],[11.5547423,48.1397895]],[[11.6137782,48.1914228],[11.6137664,48.1914024]],[[11.6140723,48.1913461],[11.6140598,48.1913241]],[[11.5701016,48.0931536],[11.5701734,48.0931887],[11.5702464,48.0932287],[11.5703605,48.0932914]],[[11.5698495,48.0932744],[11.5699535,48.0932377],[11.5700396,48.0932054],[11.5700697,48.0931807],[11.5701016,48.0931536]],[[11.5701325,48.0934762],[11.5700837,48.0934503],[11.5700234,48.0934176],[11.5699573,48.0933789],[11.5699073,48.0933506],[11.5698164,48.0933079]],[[11.5792018,48.1093706],[11.5791434,48.1094823]],[[11.5067582,48.1809414],[11.506719,48.1809024]],[[11.506719,48.1809024],[11.5067108,48.1808942]],[[11.506685,48.1809409],[11.5066147,48.1808813],[11.5064538,48.1808786]],[[11.5714609,48.1251461],[11.5714214,48.1251783],[11.5714076,48.12519],[11.5713828,48.125211],[11.5713543,48.1252352]],[[11.5024657,48.0807727],[11.5024645,48.0806984]],[[11.4430314,48.1481345],[11.4431013,48.1482201]],[[11.5864258,48.1257824],[11.5864291,48.1257912],[11.5864872,48.1257828]],[[11.591474,48.1299429],[11.5913638,48.1299815]],[[11.575547,48.1889947],[11.5756884,48.1889904]],[[11.5757476,48.1889892],[11.5759085,48.1889913]],[[11.5588551,48.1392684],[11.5588549,48.1392924],[11.5588547,48.1393227],[11.5588546,48.1393802]],[[11.558855,48.1391155],[11.5588553,48.1391877],[11.5588551,48.1392203],[11.5588551,48.1392455],[11.5588551,48.1392684]],[[11.5270348,48.0791007],[11.5270382,48.0790571]],[[11.5268954,48.0790907],[11.5269066,48.0789737]],[[11.5843188,48.1573958],[11.584362,48.1574904]],[[11.4096598,48.1400741],[11.4098864,48.1401073]],[[11.4097312,48.1398343],[11.4099667,48.1398674]],[[11.4099665,48.1399624],[11.4099725,48.1399436],[11.4099842,48.1399072],[11.4097669,48.1398758],[11.4097434,48.1398726]],[[11.4099842,48.1399072],[11.4099913,48.1398857],[11.409996,48.1398712]],[[11.4623049,48.1498785],[11.4625031,48.1498179]],[[11.4612913,48.1498484],[11.461174,48.1498833]],[[11.4622091,48.1497387],[11.4624111,48.1496797]],[[11.4623991,48.150016],[11.4625948,48.1499568]],[[11.4621147,48.149601],[11.4623178,48.1495413]],[[11.5964045,48.1105731],[11.5964539,48.1105826],[11.5965017,48.1105927]],[[11.5363918,48.1074582],[11.5363897,48.107553]],[[11.5363499,48.1075584],[11.536356,48.1075585],[11.5363893,48.1075589],[11.5364301,48.1075594],[11.5364349,48.1075595]],[[11.574272,48.1089977],[11.5743525,48.1090808]],[[11.6310305,48.1186242],[11.6325891,48.118184],[11.6325645,48.1181451],[11.6325417,48.1181092],[11.6309831,48.1185494],[11.6309992,48.1185749],[11.6310101,48.1185921],[11.6310305,48.1186242]],[[11.5027708,48.1352206],[11.5027697,48.1351311]],[[11.4632891,48.1565503],[11.4632879,48.1565358]],[[11.5667572,48.1338222],[11.5668775,48.1338538]],[[11.5290513,48.1636992],[11.5290388,48.1637977]],[[11.5291961,48.1618513],[11.5292239,48.1617541]],[[11.5288404,48.1636807],[11.5288234,48.163779]],[[11.5293036,48.1761657],[11.529408,48.1760953]],[[11.5306859,48.1832727],[11.5297319,48.1822539],[11.5297072,48.1822633],[11.5296794,48.1822738],[11.5297577,48.1823626],[11.5297389,48.1823697],[11.5297193,48.1823774],[11.5297053,48.1823835],[11.5298121,48.1824342],[11.5306251,48.1833006],[11.5306468,48.1832907],[11.5306684,48.1832809],[11.5306859,48.1832727]],[[11.5299736,48.1819279],[11.5299721,48.1819702],[11.5298951,48.1820205]],[[11.5290185,48.1767724],[11.5290763,48.1767739],[11.5291399,48.1767756]],[[11.5805214,48.0978223],[11.5806449,48.0978768]],[[11.50275,48.1356016],[11.5027493,48.1356918]],[[11.4997035,48.1352184],[11.4997215,48.1352169],[11.4997416,48.1352153],[11.4997343,48.1351753],[11.4997104,48.1350447],[11.4996724,48.1350478],[11.4997035,48.1352184]],[[11.6155914,48.142749],[11.6155108,48.1427541],[11.6154915,48.1427554],[11.6154537,48.1427578]],[[11.6228314,48.1538578],[11.6228327,48.1538919],[11.6228338,48.1539099]],[[11.6344814,48.1267936],[11.6344947,48.1267632],[11.6345037,48.1267421],[11.6345161,48.1267122],[11.6343058,48.1266667],[11.6338015,48.1265233],[11.6332094,48.1263327],[11.6331008,48.1262966],[11.6330779,48.1263272],[11.6330655,48.1263433],[11.6330461,48.126368],[11.6331557,48.1264045],[11.6337716,48.1266097],[11.6342644,48.1267461],[11.6344814,48.1267936]],[[11.6072635,48.1171515],[11.6073457,48.1170692]],[[11.580241,48.1149942],[11.5817942,48.11456],[11.5817772,48.114533],[11.5817613,48.1145077],[11.5817454,48.1144822],[11.580192,48.1149165],[11.5802075,48.1149407],[11.5802166,48.114955],[11.5802285,48.1149743],[11.580241,48.1149942]],[[11.5962163,48.1111047],[11.5962286,48.1110779]],[[11.5969021,48.1112416],[11.5970577,48.1112733]],[[11.5961732,48.1110669],[11.5962286,48.1110779],[11.5962826,48.1110886]],[[11.5075878,48.1810164],[11.5075948,48.1809408],[11.5076016,48.1808672]],[[11.5922055,48.1300538],[11.5923121,48.1299848]],[[11.593469,48.1286765],[11.5933988,48.128612]],[[11.593671,48.1291433],[11.5935792,48.1291999]],[[11.5458725,48.1033713],[11.5458555,48.1034682]],[[11.5836763,48.1553998],[11.5837047,48.1553952],[11.583721,48.1553925],[11.5838034,48.1553789]],[[11.5022298,48.1161634],[11.5022258,48.1160642]],[[11.4615684,48.150268],[11.4614528,48.150303]],[[11.613989,48.1914531],[11.6139863,48.1914791],[11.6139557,48.1914611],[11.6139537,48.1914577],[11.6139474,48.1914468]],[[11.614037,48.1912843],[11.6140598,48.1913241]],[[11.6137463,48.1913688],[11.6137664,48.1914024]],[[11.6139373,48.1913691],[11.6139119,48.1913636],[11.6139066,48.1913765],[11.6139413,48.1914363],[11.6139474,48.1914468]],[[11.6164173,48.2111998],[11.6164014,48.2111682]],[[11.6162626,48.2112362],[11.6162479,48.2112068]],[[11.5331358,48.0955461],[11.5330918,48.0954455]],[[11.533365,48.0955671],[11.5333364,48.0955022]],[[11.5649511,48.1396614],[11.5650842,48.1396128]],[[11.5605656,48.1413296],[11.5604382,48.141358]],[[11.5592959,48.1411735],[11.5594343,48.1411621]],[[11.559618,48.1411581],[11.5594837,48.1411672]],[[11.560735,48.1409522],[11.5607285,48.1408655]],[[11.560735,48.1409522],[11.5607202,48.1409671]],[[11.559306,48.1414584],[11.5592919,48.1414287],[11.5592775,48.1413985]],[[11.5582989,48.141561],[11.5583056,48.1416045],[11.5584638,48.1416789]],[[11.5600947,48.1412828],[11.5599372,48.1412302],[11.5597636,48.1412673]],[[11.5609532,48.1412608],[11.5609387,48.1412186],[11.5608943,48.1411105]],[[11.5613432,48.1408762],[11.5614648,48.1408441]],[[11.5597752,48.1413203],[11.5597882,48.1413173],[11.5598032,48.1413139]],[[11.5612866,48.1410665],[11.5613359,48.1410679]],[[11.5597557,48.1413343],[11.5597752,48.1413203]],[[11.5613751,48.1410582],[11.5613359,48.1410679]],[[11.5613596,48.1409654],[11.561296,48.1409792]],[[11.5598363,48.1413152],[11.5598032,48.1413139]],[[11.5614646,48.1392813],[11.5613169,48.1392815]],[[11.5614627,48.1401995],[11.5614155,48.1402033]],[[11.5612199,48.139272],[11.5613169,48.1392815]],[[11.5615303,48.1400574],[11.5613947,48.1400936]],[[11.5584739,48.1391153],[11.5583532,48.1391151]],[[11.5607078,48.1393065],[11.560695,48.1393056],[11.5606919,48.1393324]],[[11.4099667,48.1398674],[11.409996,48.1398712]],[[11.6301725,48.0935911],[11.6300503,48.0936002]],[[11.5745529,48.1371709],[11.5747219,48.1372134],[11.5747967,48.1372323]],[[11.5762217,48.13697],[11.5763509,48.1369213]],[[11.5743971,48.1372173],[11.5745303,48.137177]],[[11.5753776,48.1371708],[11.5753925,48.1372026],[11.5753976,48.1372134],[11.5754208,48.1372631],[11.5754288,48.1372795]],[[11.5755249,48.1370067],[11.5756661,48.1369769]],[[11.575381,48.1372734],[11.5754925,48.1372487],[11.575649,48.1372142]],[[11.5747219,48.1372134],[11.5746406,48.1372337]],[[11.5756732,48.1384559],[11.5755868,48.1384713]],[[11.5745529,48.1371709],[11.5745303,48.137177]],[[11.5592263,48.1410313],[11.5592339,48.1410841],[11.5592841,48.1410808]],[[11.5592919,48.1414287],[11.559259,48.1414357]],[[11.5854394,48.1780435],[11.5855787,48.1778612],[11.5856114,48.1778724],[11.5855726,48.1779232],[11.5855291,48.1779802],[11.5854721,48.1780547],[11.5854394,48.1780435]],[[11.5850207,48.1821164],[11.5850501,48.1821174],[11.5850624,48.1819449],[11.585033,48.181944],[11.5850207,48.1821164]],[[11.591542,48.1298973],[11.5915233,48.1299049]],[[11.5914721,48.1011298],[11.5913141,48.1010886],[11.5913276,48.1010654]],[[11.591203,48.1010605],[11.5912255,48.1010664],[11.5912278,48.1010626],[11.5912395,48.1010424],[11.5913276,48.1010654],[11.5913312,48.1010593]],[[11.5753897,48.1370543],[11.5754187,48.1371175]],[[11.6029668,48.1789369],[11.6029853,48.1789542]],[[11.6894374,48.1336417],[11.6894399,48.13358],[11.6894388,48.1335369],[11.6894397,48.1334941]],[[11.6097449,48.1354319],[11.6097767,48.1354409]],[[11.5486415,48.1419163],[11.5486467,48.1419428],[11.5486506,48.1419633],[11.5486581,48.1420021]],[[11.5483924,48.1419933],[11.5483147,48.1419983],[11.5482921,48.1419885]],[[11.5486645,48.1419856],[11.5487145,48.1419818],[11.5487594,48.1419555]],[[11.5499447,48.142343],[11.5498612,48.1422159]],[[11.5498577,48.1423487],[11.5497738,48.1422216]],[[11.5497637,48.1423548],[11.5496779,48.1422284]],[[11.5496723,48.1423607],[11.5495887,48.1422336]],[[11.5495804,48.1423667],[11.5494962,48.1422398]],[[11.5494886,48.1423726],[11.549404,48.1422458]],[[11.5493937,48.1423788],[11.549309,48.1422521]],[[11.549294,48.1423841],[11.5491966,48.1422595]],[[11.5491977,48.1424624],[11.5493768,48.1424513]],[[11.5490296,48.1424729],[11.5491789,48.1424636]],[[11.5507874,48.1422882],[11.5507022,48.1421616]],[[11.5507,48.1422939],[11.5506147,48.1421673]],[[11.5506072,48.1423],[11.5505215,48.1421734]],[[11.5505178,48.1423058],[11.5504324,48.1421792]],[[11.5504215,48.142312],[11.5503353,48.1421857]],[[11.55032,48.1423186],[11.5502334,48.1421924]],[[11.5502331,48.1423243],[11.5501475,48.1421977]],[[11.5501355,48.1423306],[11.5500517,48.1422036]],[[11.5500402,48.1423368],[11.5499542,48.1422104]],[[11.5847223,48.1234204],[11.5848115,48.1234412],[11.584781,48.1233674],[11.5848745,48.1234059]],[[11.5075948,48.1809408],[11.5075804,48.1809403],[11.5075609,48.1809397]],[[11.5075123,48.1809381],[11.5075609,48.1809397]],[[11.5654388,48.1390196],[11.5654415,48.1390267],[11.565455,48.1390849]],[[11.6146737,48.1925612],[11.6146157,48.1924706]],[[11.5753864,48.1370925],[11.575333,48.1371042]],[[11.5747967,48.1372323],[11.5749897,48.137197],[11.5751492,48.1371661],[11.5752819,48.1371402],[11.5754249,48.1371124],[11.5755947,48.1370792],[11.5757389,48.1370511],[11.5761754,48.1369659]],[[11.5756947,48.1372037],[11.5758009,48.1371801]],[[11.5757913,48.1373058],[11.5757363,48.1371947],[11.5757138,48.1371997],[11.5756947,48.1372037]],[[11.5593057,48.1407881],[11.5593353,48.1407861]],[[11.5415733,48.1633493],[11.5415386,48.1633242]],[[11.5428285,48.162435],[11.5428618,48.1624587]],[[11.5469258,48.1599592],[11.5468926,48.1599416]],[[11.5612047,48.1401631],[11.5609563,48.1401762],[11.560895,48.1401794],[11.5608463,48.140182]],[[11.5486506,48.1419633],[11.5486787,48.1419611]],[[11.6300488,48.093525],[11.6301771,48.0935156]],[[11.5363563,48.1074112],[11.5363601,48.1074112],[11.5363932,48.1074113],[11.5364354,48.1074113],[11.5364403,48.1074113]],[[11.607199,48.1172],[11.6072296,48.1171696]],[[11.5290763,48.1767739],[11.5290783,48.176743]],[[11.5961857,48.1106651],[11.59611,48.1106497]],[[11.5652873,48.1391162],[11.5652954,48.1390879],[11.5653008,48.1390442],[11.5652632,48.138941]],[[11.565137,48.1390305],[11.5651564,48.1390536],[11.5652502,48.13913]],[[11.5661093,48.1395165],[11.566149,48.1394939]],[[11.5661093,48.1395165],[11.5660785,48.1395279],[11.5660401,48.1395374],[11.5659501,48.1395481],[11.5660428,48.1395516],[11.5660905,48.1395462],[11.5661362,48.1395373]],[[11.5334729,48.0955725],[11.5334282,48.0954636],[11.5334241,48.0954531],[11.5334064,48.0954397],[11.533384,48.095434],[11.5333576,48.0954393]],[[11.5657472,48.1396466],[11.5659365,48.1398356],[11.5659455,48.1398449]],[[11.5659508,48.139362],[11.5658985,48.1393675],[11.5658596,48.1393859]],[[11.5756858,48.1371056],[11.5756997,48.1371348],[11.5757127,48.1371623],[11.575729,48.1371964],[11.5756947,48.1372037]],[[11.5668891,48.1338345],[11.5667679,48.1338022]],[[11.593391,48.1058098],[11.5935292,48.1058556]],[[11.5614155,48.1402033],[11.56128,48.1402541]],[[11.5600947,48.1412828],[11.5600149,48.1413397],[11.5598203,48.1413826]],[[11.5584638,48.1416789],[11.5585007,48.1417632]],[[11.5598203,48.1413826],[11.5594788,48.1414594],[11.5593769,48.1414823],[11.5591829,48.1415259],[11.5584638,48.1416789]],[[11.5598589,48.1414612],[11.5598507,48.1414445],[11.5598203,48.1413826],[11.5597882,48.1413173],[11.5597636,48.1412673],[11.5597356,48.1412104],[11.5597263,48.1411914]],[[11.5608802,48.1409669],[11.5609303,48.1409546]],[[11.5611878,48.1407401],[11.561183,48.140702],[11.5611521,48.1404616]],[[11.5609875,48.1398032],[11.5610145,48.139768],[11.5610558,48.1397652]],[[11.5612047,48.1401631],[11.5611913,48.1400653],[11.5611872,48.1400352],[11.5611858,48.1400251]],[[11.5610907,48.1392229],[11.5611078,48.1391921]],[[11.5610203,48.1400356],[11.5609705,48.1400393]],[[11.5609303,48.1409546],[11.5609595,48.1409022]],[[11.5610897,48.140744],[11.5611878,48.1407401]],[[11.5610897,48.140744],[11.5610556,48.1407691],[11.5610165,48.1408058],[11.560998,48.1408528],[11.5609977,48.1409262],[11.5610068,48.1410862]],[[11.5609977,48.1409262],[11.5610464,48.1409129]],[[11.5595288,48.1415549],[11.5596081,48.1415449]],[[11.5594788,48.1414594],[11.5595288,48.1415549]],[[11.5607835,48.1411344],[11.5607247,48.1410096],[11.5607202,48.1409671]],[[11.5598811,48.1414566],[11.5598589,48.1414612]],[[11.5609888,48.1411603],[11.5609772,48.1411635]],[[11.5598811,48.1414566],[11.559908,48.1414621]],[[11.5600947,48.1412828],[11.5605473,48.1411853],[11.5607835,48.1411344],[11.5608943,48.1411105],[11.5610068,48.1410862],[11.5613657,48.1410089]],[[11.5605473,48.1411853],[11.5606184,48.1413231],[11.5605878,48.1413302]],[[11.559259,48.1414357],[11.5592008,48.1414478]],[[11.5609303,48.1409546],[11.5609617,48.1410616],[11.5609888,48.1411603]],[[11.5613751,48.1410582],[11.5613657,48.1410089],[11.5613596,48.1409654],[11.5613432,48.1408762]],[[11.5597109,48.1411951],[11.5596846,48.1411889]],[[11.5597263,48.1411914],[11.5597109,48.1411951]],[[11.5593201,48.1413631],[11.5592134,48.1413875],[11.5592008,48.1414478],[11.5591829,48.1415259]],[[11.5612151,48.140458],[11.5612117,48.1404171]],[[11.5653882,48.1396344],[11.5653376,48.1396799]],[[11.5615908,48.1410187],[11.5616436,48.1410133]],[[11.5671163,48.1338651],[11.5672782,48.1339088]],[[11.6152833,48.2101119],[11.6153617,48.2101035]],[[11.5607609,48.1392421],[11.5607588,48.1392649],[11.5607538,48.1392923],[11.5607516,48.1393129],[11.5607511,48.1393187],[11.5607501,48.1393393],[11.5607486,48.1393457],[11.5607386,48.1393701],[11.5607212,48.1394063],[11.5606963,48.1394497]],[[11.6029165,48.1789612],[11.6029668,48.1789369],[11.6030201,48.1789122]],[[11.5569001,48.0903891],[11.5569374,48.0903683],[11.5569786,48.090398],[11.5570176,48.0904291],[11.5570649,48.0904618],[11.557084,48.0904732]],[[11.5755325,48.1373292],[11.5755141,48.1372921],[11.5754925,48.1372487],[11.5754757,48.1372148],[11.575467,48.1371972],[11.5754249,48.1371124]],[[11.5753082,48.1374303],[11.5752667,48.1374287]],[[11.5758309,48.1372411],[11.5757574,48.137281],[11.5755325,48.1373292],[11.5752866,48.1373821]],[[11.5758309,48.1372411],[11.5758009,48.1371801],[11.5757783,48.1371332],[11.5757389,48.1370511]],[[11.6334431,48.1331203],[11.6334039,48.1331262],[11.6331021,48.1331712],[11.6330538,48.1331784],[11.6330415,48.1331801],[11.6329809,48.1331886],[11.6328888,48.1332026]],[[11.5479393,48.1390914],[11.5479338,48.139074]],[[11.5324046,48.1612982],[11.5323361,48.1612889],[11.53232,48.1612879]],[[11.604117,48.1798219],[11.6040736,48.1798432],[11.6040504,48.1798546]],[[11.490088,48.1243443],[11.4900959,48.1243449],[11.4901654,48.124349]],[[11.6559833,48.1172993],[11.6560443,48.1172787],[11.6561158,48.1172545],[11.6560999,48.1172335],[11.6559673,48.1172783],[11.6559833,48.1172993]],[[11.6559573,48.1166778],[11.6559436,48.1166939],[11.6557803,48.116632],[11.6557939,48.116616],[11.6559138,48.1166614],[11.6559573,48.1166778]],[[11.6563726,48.1172286],[11.6563891,48.1172501],[11.6561673,48.1173261],[11.6561508,48.1173046],[11.6563094,48.1172502],[11.6563726,48.1172286]],[[11.578409,48.1261523],[11.578272,48.1262519]],[[11.5784,48.12633],[11.5785357,48.1262304]],[[11.5755195,48.1373636],[11.5754653,48.1372531],[11.5754612,48.1372449],[11.5754487,48.1372194],[11.5754413,48.1372042],[11.5753864,48.1370925]],[[11.5024579,48.1464663],[11.5024302,48.146469],[11.5023981,48.1463212],[11.5024258,48.1463185],[11.5024579,48.1464663]],[[11.5864246,48.1258054],[11.5864381,48.1258429]],[[11.5865172,48.1258054],[11.5864718,48.1258124],[11.586467,48.1257997]],[[11.5864872,48.1257828],[11.5865104,48.1257794]],[[11.5670341,48.13335],[11.5670729,48.1332902],[11.5670455,48.1332822],[11.5670081,48.133342]],[[11.5294992,48.182102],[11.5295472,48.1821007]],[[11.5294992,48.182102],[11.5295696,48.1821013]],[[11.5298377,48.1820945],[11.5298644,48.1820951]],[[11.529862,48.1821406],[11.5298644,48.1820951],[11.5298666,48.182054]],[[11.5297072,48.1822633],[11.5296498,48.1821976],[11.5296093,48.1822133],[11.5295758,48.182163],[11.5295347,48.1821015],[11.5294992,48.182102]],[[11.5298528,48.1822109],[11.5297825,48.1821255],[11.5298173,48.1821232],[11.5299315,48.1821154],[11.5299757,48.1820993]],[[11.5655484,48.1923146],[11.5655745,48.1923163],[11.5656052,48.1923183]],[[11.5237471,48.1360824],[11.5237814,48.1361027],[11.5238157,48.1361231]],[[11.5241446,48.1360596],[11.5241835,48.1360836],[11.5241952,48.1360909]],[[11.6300147,48.1187665],[11.6298614,48.1188039],[11.6298755,48.1188298],[11.6301121,48.1187723],[11.6300979,48.1187463],[11.6300147,48.1187665]],[[11.5791963,48.1393492],[11.5789996,48.1393865]],[[11.5782675,48.1393445],[11.5784644,48.1393061]],[[11.6218832,48.1266339],[11.6219327,48.1266294],[11.6219629,48.126626],[11.6219863,48.1267308],[11.6219957,48.1267732],[11.621962,48.1267765],[11.6219161,48.1267811],[11.6218832,48.1266339]],[[11.5386381,48.1425838],[11.538836,48.1425744]],[[11.5386381,48.1427213],[11.5388417,48.1427101]],[[11.5962733,48.1109873],[11.5963417,48.1108388]],[[11.5263202,48.1165826],[11.5263282,48.1165618],[11.5263382,48.1165357]],[[11.6573155,48.098705],[11.6572688,48.0987203],[11.6574186,48.0989245],[11.6574652,48.0989092],[11.6573888,48.098805],[11.6573155,48.098705]],[[11.65717,48.0990066],[11.6572958,48.0991773],[11.6573253,48.0991676],[11.6571722,48.0989599],[11.6571427,48.0989696],[11.65717,48.0990066]],[[11.6152585,48.1430345],[11.6153077,48.1430318],[11.6153589,48.143029],[11.6154074,48.1430263]],[[11.5653891,48.1390918],[11.5653394,48.1390649],[11.5653008,48.1390442]],[[11.5855567,48.1781843],[11.5854238,48.1781767]],[[11.5832602,48.1385626],[11.5830102,48.1386113]],[[11.5829249,48.1384812],[11.5830044,48.1384658],[11.5831972,48.1384285]],[[11.6169675,48.1011785],[11.6169673,48.1011657],[11.6169974,48.1011655],[11.6169972,48.1011561],[11.617082,48.1011555],[11.6170822,48.1011633],[11.6171731,48.1011626],[11.6171733,48.1011772],[11.6169675,48.1011785]],[[11.4813554,48.1415662],[11.4813577,48.1415772],[11.4810776,48.1416036],[11.4810728,48.1415807],[11.4813529,48.1415543],[11.4813554,48.1415662]],[[11.4811926,48.1417909],[11.4811878,48.1417668],[11.4809141,48.1417911],[11.4809189,48.1418152],[11.4811926,48.1417909]],[[11.4782424,48.1203725],[11.4782697,48.1203691],[11.4782979,48.1204721],[11.4783255,48.1204688],[11.4782641,48.1202447],[11.4782093,48.1202514],[11.4782424,48.1203725]],[[11.4750691,48.1277137],[11.4750942,48.1277273],[11.4751313,48.1277473],[11.4748989,48.1279391],[11.4748554,48.1279157],[11.4748362,48.1279053],[11.4749701,48.1277948],[11.4749552,48.1277868],[11.4749907,48.1277575],[11.4750061,48.1277657],[11.4750691,48.1277137]],[[11.4750208,48.1280283],[11.4750616,48.1279955],[11.4750327,48.1279795],[11.4748578,48.1281205],[11.4748867,48.1281364],[11.4749816,48.1280599],[11.4750208,48.1280283]],[[11.4770651,48.1153373],[11.477016,48.1151142],[11.4770485,48.115111],[11.4770976,48.1153341],[11.4770651,48.1153373]],[[11.477504,48.115958],[11.4775492,48.1159522],[11.4775751,48.1160432],[11.4776007,48.116133],[11.4775555,48.1161387],[11.477504,48.115958]],[[11.478714,48.1258518],[11.4790067,48.1258793],[11.4790012,48.125905],[11.4788915,48.1258946],[11.4788905,48.1258992],[11.4788099,48.1258916],[11.4788107,48.1258874],[11.4787086,48.1258778],[11.478714,48.1258518]],[[11.4753417,48.1260435],[11.4753051,48.1260447],[11.4752967,48.1258943],[11.4752946,48.1258455],[11.4752925,48.1257986],[11.4753285,48.1257978],[11.4753417,48.1260435]],[[11.4759687,48.1257392],[11.4759689,48.1257322],[11.4761451,48.1257337],[11.4761455,48.1257081],[11.4757262,48.1257046],[11.4757258,48.1257284],[11.4758963,48.1257298],[11.4758961,48.1257385],[11.4759687,48.1257392]],[[11.5170532,48.1182769],[11.517072,48.1182733],[11.5171251,48.118263]],[[11.5611503,48.1394593],[11.5609732,48.1394643]],[[11.5609875,48.1395653],[11.5609343,48.1395688],[11.5609374,48.139591]],[[11.5610145,48.139768],[11.5609875,48.1395653],[11.5609732,48.1394643],[11.5609567,48.1393463]],[[11.5609567,48.1393463],[11.5610833,48.1393486],[11.561087,48.1392724],[11.5610907,48.1392229]],[[11.561026,48.1400758],[11.5609563,48.1401762]],[[11.5754241,48.137253],[11.5754612,48.1372449]],[[11.5755507,48.1382153],[11.575481,48.1382287],[11.5754415,48.1382363],[11.575394,48.1382455]],[[11.5754208,48.1372631],[11.575649,48.1372142]],[[11.5547936,48.1396014],[11.5547162,48.1396207]],[[11.5548148,48.1399523],[11.5548241,48.1400193]],[[11.575143,48.1372856],[11.5751181,48.1372911],[11.5750814,48.1372164]],[[11.5754451,48.1372494],[11.5754271,48.1372532],[11.5754195,48.137237],[11.5754112,48.1372194],[11.5754477,48.1372118],[11.5754171,48.1371465]],[[11.5757389,48.1370511],[11.5756992,48.1369697],[11.5756661,48.1369769]],[[11.5763161,48.1371623],[11.5761717,48.1372035],[11.5759105,48.1372247],[11.5758309,48.1372411]],[[11.5799576,48.1112083],[11.5799322,48.1112233]],[[11.5791543,48.110829],[11.5791506,48.1108317]],[[11.5767301,48.1125014],[11.5767079,48.1125047]],[[11.6262987,48.1991641],[11.6264265,48.1991302],[11.6265343,48.1991023]],[[11.6005981,48.1357634],[11.6005958,48.135785],[11.6005921,48.1358193]],[[11.4669391,48.1124142],[11.4670195,48.1124215],[11.4670243,48.1123976],[11.4668562,48.1123825],[11.4668514,48.1124064],[11.4669391,48.1124142]],[[11.5969326,48.1844072],[11.5969848,48.1843863]],[[11.5953472,48.1849713],[11.595296,48.1849903]],[[11.3890317,48.133859],[11.3889799,48.1339073]],[[11.5117177,48.1391377],[11.5118546,48.1391166],[11.5118504,48.1391042],[11.5117134,48.1391253],[11.5117177,48.1391377]],[[11.5115221,48.1394046],[11.5116969,48.1393775],[11.5117019,48.1393919],[11.5115272,48.139419],[11.5115221,48.1394046]],[[11.6700339,48.1180906],[11.669912,48.1179378],[11.6698912,48.1179121],[11.6698713,48.1179187],[11.6698906,48.1179436],[11.6698662,48.1179521],[11.6699407,48.1180473],[11.6699657,48.1180394],[11.6700193,48.1181048],[11.6700395,48.1180979],[11.6700339,48.1180906]],[[11.6557116,48.1167107],[11.6557198,48.1167003],[11.6556869,48.1166884],[11.6555381,48.1166368],[11.6555301,48.1166479],[11.6557116,48.1167107]],[[11.6526489,48.0974934],[11.652708,48.0973849],[11.6527662,48.0972783],[11.6527351,48.0972707],[11.6527075,48.097264],[11.6525902,48.0974791],[11.6526047,48.0974826],[11.6526489,48.0974934]],[[11.6672437,48.1236347],[11.6672064,48.1236084],[11.6674071,48.123481],[11.6674444,48.1235073],[11.6672437,48.1236347]],[[11.6673505,48.1236546],[11.6675843,48.1235079],[11.6676183,48.1235321],[11.6673846,48.1236788],[11.6673505,48.1236546]],[[11.6663533,48.123238],[11.6663651,48.1232345],[11.6663848,48.1232283],[11.6664414,48.123316],[11.666423,48.1233212],[11.6664108,48.1233245],[11.6663533,48.123238]],[[11.6663345,48.1233677],[11.6662402,48.1232268],[11.6662205,48.1232327],[11.6661858,48.123243],[11.6662207,48.1232951],[11.6662457,48.1232877],[11.6663051,48.1233765],[11.6663198,48.1233721],[11.6663345,48.1233677]],[[11.6630431,48.1088733],[11.6630503,48.1088822],[11.6628412,48.1089573],[11.6628349,48.1089432],[11.6628263,48.1089388],[11.6630354,48.1088637],[11.6630431,48.1088733]],[[11.6637098,48.1081382],[11.6637286,48.108131],[11.6635891,48.1079677],[11.66357,48.107975],[11.6635594,48.107979],[11.6636989,48.1081424],[11.6637098,48.1081382]],[[11.6633693,48.1079107],[11.6633407,48.1079199],[11.663432,48.108047],[11.6634616,48.1080375],[11.6634715,48.1080343],[11.6633802,48.1079072],[11.6633693,48.1079107]],[[11.6640214,48.1085215],[11.6639711,48.108457]],[[11.664069,48.1087417],[11.6640389,48.1086943],[11.6640261,48.1086741]],[[11.6636078,48.108485],[11.6635794,48.1084642],[11.6633883,48.1085806],[11.6634176,48.108602],[11.6634249,48.1086074],[11.6634859,48.1085742],[11.6635521,48.1085342],[11.663616,48.108491],[11.6636078,48.108485]],[[11.6332105,48.1330929],[11.6334176,48.1330555],[11.6334234,48.1330693],[11.6332159,48.1331065],[11.6332105,48.1330929]],[[11.63121,48.1282343],[11.6312206,48.1282572],[11.6312284,48.1282742]],[[11.6703656,48.1218293],[11.6701466,48.1219508],[11.6701315,48.1219591],[11.670102,48.1219353],[11.6703559,48.1217945],[11.6703856,48.1218183],[11.6703656,48.1218293]],[[11.6551447,48.1092262],[11.6548465,48.1092284],[11.6547854,48.1092288],[11.654785,48.1092013],[11.6551442,48.1091988],[11.6551447,48.1092262]],[[11.6539488,48.1090136],[11.6543325,48.1090121],[11.6543489,48.1090121],[11.6543491,48.1090379],[11.653949,48.1090394],[11.6539488,48.1090136]],[[11.6495575,48.109217],[11.6495575,48.1092298],[11.6492782,48.1092305],[11.6492781,48.1092048],[11.6495574,48.1092041],[11.6495575,48.109217]],[[11.6501996,48.1090409],[11.6505655,48.1090397],[11.6505653,48.1090147],[11.6502428,48.1090158],[11.6501994,48.1090159],[11.6501996,48.1090409]],[[11.6613569,48.0908353],[11.6615047,48.0907811],[11.6615608,48.0907626]],[[11.673517,48.1109542],[11.6733863,48.1108707],[11.6733585,48.1108901],[11.6735511,48.1110131],[11.6735789,48.1109937],[11.673517,48.1109542]],[[11.6465287,48.1067375],[11.6465551,48.1067374]],[[11.6503046,48.1197485],[11.6502853,48.1197217],[11.6501626,48.1197611],[11.6501819,48.1197879],[11.6502765,48.1197575],[11.6503046,48.1197485]],[[11.5270382,48.0790571],[11.5270442,48.0789793]],[[11.5312901,48.1563138],[11.5313527,48.1562815],[11.5313432,48.1562733],[11.5312807,48.1563056],[11.5312901,48.1563138]],[[11.4626086,48.1503598],[11.4626694,48.150365]],[[11.4591371,48.146393],[11.4591216,48.1463495],[11.4591014,48.1462926],[11.4590602,48.1461764]],[[11.4592333,48.1462169],[11.459286,48.1463631],[11.4592929,48.1463822]],[[11.4580378,48.1439656],[11.4579454,48.1437983]],[[11.4581104,48.143825],[11.4582085,48.1439798]],[[11.6131177,48.114781],[11.6130745,48.1147786]],[[11.4887107,48.1039106],[11.4886981,48.1039075],[11.4886692,48.1039005],[11.4888538,48.1035615],[11.4888953,48.1035715],[11.4887892,48.1037663],[11.4887107,48.1039106]],[[11.4885516,48.1036574],[11.4885377,48.1036596],[11.4885086,48.1036642],[11.4884372,48.1034611],[11.4884664,48.1034565],[11.4884801,48.1034544],[11.4885516,48.1036574]],[[11.4041153,48.1399103],[11.4040819,48.1400287],[11.4040403,48.140167]],[[11.6300136,48.0934151],[11.6301188,48.09341]],[[11.6094531,48.1960427],[11.6094467,48.1960304],[11.6093884,48.1959189],[11.6093594,48.1959256],[11.6094173,48.1960364],[11.6094241,48.1960494],[11.6094531,48.1960427]],[[11.6091225,48.1957264],[11.6091542,48.1957187],[11.6091611,48.1957314],[11.6092487,48.1958931],[11.6092169,48.1959008],[11.6091298,48.1957398],[11.6091225,48.1957264]],[[11.5496047,48.1425496],[11.5497757,48.1425389]],[[11.5493787,48.1425636],[11.5495276,48.1425544]],[[11.5491051,48.1425807],[11.5492768,48.14257]],[[11.5494981,48.1427351],[11.5496458,48.1427272]],[[11.5528632,48.1405569],[11.5535788,48.1404145],[11.5540754,48.1403305],[11.554295,48.1402926],[11.5544918,48.1402595],[11.5547354,48.1402281],[11.5549584,48.1402025],[11.5551854,48.1401808],[11.5586793,48.1399332],[11.5586674,48.1398622],[11.5551736,48.1401112],[11.5549441,48.140131],[11.5547197,48.1401568],[11.5544727,48.1401941],[11.5542743,48.1402312],[11.5540535,48.1402757],[11.5528535,48.1405351],[11.5528632,48.1405569]],[[11.5587048,48.1400836],[11.5586926,48.1400115],[11.5551976,48.1402531],[11.5549729,48.1402752],[11.5547514,48.1403009],[11.5545134,48.1403334],[11.5543195,48.1403651],[11.5541037,48.1404009],[11.553709,48.1404637],[11.5534279,48.140519],[11.5530469,48.1406116],[11.5530603,48.1406427],[11.5534546,48.1405727],[11.5537362,48.1405216],[11.5541259,48.1404564],[11.55434,48.1404259],[11.5545341,48.1404041],[11.554769,48.1403808],[11.5549901,48.1403617],[11.555213,48.1403439],[11.5587048,48.1400836]],[[11.409968,48.1400883],[11.4099543,48.1400789],[11.4099276,48.1400749],[11.4098499,48.1400634],[11.4097164,48.1400436]],[[11.4099276,48.1400749],[11.4099156,48.1401115],[11.4098864,48.1401073]],[[11.4098499,48.1400634],[11.4098692,48.1400095]],[[11.6133427,48.1247643],[11.6132602,48.1247684],[11.6130993,48.1247758]],[[11.613084,48.1246281],[11.6132409,48.1246217],[11.6132953,48.1246204]],[[11.5592155,48.1409569],[11.5592263,48.1410313]],[[11.5499573,48.1219659],[11.5499461,48.1219632]],[[11.6406344,48.0980469],[11.6406222,48.098025],[11.6406161,48.0980141]],[[11.6759613,48.1121872],[11.675928,48.1121657]],[[11.5387584,48.1431747],[11.5387513,48.1431569],[11.5387462,48.1431348],[11.5387439,48.1431145],[11.5387438,48.1430946],[11.5387458,48.1430699],[11.5387522,48.1430466],[11.5387615,48.1430295],[11.5387744,48.143014],[11.5387951,48.1429977]],[[11.4016033,48.144048],[11.4016714,48.1438595],[11.4019387,48.142999],[11.4019711,48.1428949],[11.4019775,48.1428742],[11.4021865,48.1422007],[11.4022263,48.1420724],[11.4024257,48.1414297],[11.4024412,48.1413798],[11.4024494,48.1413551],[11.402507,48.1411696]],[[11.4005765,48.140896],[11.4012079,48.1409858],[11.4016493,48.141048],[11.4024706,48.1411644],[11.402507,48.1411696],[11.4026164,48.1411851]],[[11.6548465,48.109239],[11.6548465,48.1092284]],[[11.613084,48.1246281],[11.6129602,48.1246355]],[[11.6130993,48.1247758],[11.6129619,48.1247768]],[[11.6394723,48.1092521],[11.6393062,48.109253],[11.639129,48.1092525]],[[11.6391295,48.1090075],[11.6393056,48.109006],[11.6394728,48.1090079]],[[11.5484549,48.1192738],[11.5484535,48.1191765]],[[11.5700618,48.1110653],[11.5700872,48.1110811]],[[11.5586025,48.1006017],[11.5585924,48.1006053]],[[11.5613541,48.1034902],[11.5613269,48.1034975]],[[11.5395646,48.1168879],[11.5395876,48.1168879],[11.5397128,48.1168892]],[[11.5393085,48.1166975],[11.539299,48.1166846],[11.5392433,48.1166088]],[[11.5202586,48.1447457],[11.520265,48.144769]],[[11.5387043,48.1432289],[11.5386989,48.1431702],[11.5386897,48.1430722],[11.5387111,48.143017],[11.5387437,48.1429953],[11.5387564,48.1429875]],[[11.5363932,48.1074113],[11.5363927,48.107422]],[[11.5363837,48.1088522],[11.5364301,48.1075594],[11.5364354,48.1074113],[11.5364356,48.1074059],[11.5364355,48.1069707]],[[11.5363727,48.1069706],[11.5363603,48.1074055],[11.5363601,48.1074112],[11.536356,48.1075585],[11.5363193,48.1088519]],[[11.607731,48.1930338],[11.6077615,48.1930272],[11.6078486,48.1932052],[11.6078181,48.1932118],[11.607731,48.1930338]],[[11.6081581,48.1935646],[11.6081819,48.1935594],[11.608282,48.1937622],[11.6082582,48.1937675],[11.6081581,48.1935646]],[[11.6558006,48.0966376],[11.6558147,48.0966332]],[[11.4961067,48.0956102],[11.4961632,48.095638],[11.4962672,48.0956957]],[[11.6796796,48.1326943],[11.6797109,48.132684]],[[11.6651935,48.1025262],[11.6650697,48.1024227]],[[11.5961146,48.110785],[11.5961355,48.1107381],[11.5962028,48.1107528]],[[11.5964539,48.1105826],[11.5964499,48.1105914]],[[11.5833135,48.1357035],[11.5833751,48.1356735],[11.5834859,48.1356197],[11.5835408,48.135593]],[[11.5665886,48.1126352],[11.5665983,48.112667]],[[11.561296,48.1409792],[11.5612439,48.1409816]],[[11.5671078,48.133879],[11.5672691,48.1339225]],[[11.6526971,48.0976325],[11.6528048,48.0974298],[11.6528384,48.0974378],[11.6527368,48.0976289],[11.6527306,48.0976405],[11.6526971,48.0976325]],[[11.4695968,48.1266345],[11.4696109,48.1266345],[11.4696216,48.1266345],[11.4696216,48.1265574],[11.4696216,48.1265162],[11.469612,48.1265162],[11.4695968,48.1265162],[11.4695968,48.1266345]],[[11.3890541,48.1340838],[11.3890219,48.1341153]],[[11.3888461,48.1340375],[11.3888801,48.1340062]],[[11.5929664,48.1060573],[11.5928881,48.106033]],[[11.5931866,48.1061559],[11.5932041,48.1061275]],[[11.5611687,48.1395408],[11.5612095,48.1395381],[11.5612465,48.13979],[11.5612838,48.1400434],[11.5612428,48.1400461],[11.5611687,48.1395408]],[[11.4129401,48.1507043],[11.4130075,48.1507128],[11.4130708,48.1507217],[11.4132033,48.1507404]],[[11.6613834,48.0908668],[11.6613569,48.0908353]],[[11.6619501,48.0864897],[11.6619256,48.0864897],[11.6618992,48.0864896]],[[11.6617474,48.0863789],[11.6617846,48.0863789],[11.6618116,48.0863789]],[[11.581657,48.124701],[11.5816787,48.1246902]],[[11.5330918,48.0954455],[11.5331027,48.0954205],[11.5330978,48.0954088],[11.5330697,48.0953414],[11.5323225,48.0935522]],[[11.5332955,48.0954092],[11.533266,48.0953944],[11.5331715,48.0951627],[11.5329357,48.0945842],[11.5324976,48.0935093]],[[11.4631136,48.1975872],[11.463119,48.1975648],[11.4631204,48.1975586],[11.4628787,48.1975305],[11.4628773,48.1975371],[11.4628725,48.1975588],[11.4631136,48.1975872]],[[11.4621533,48.197296],[11.4624142,48.1973264],[11.4624092,48.1973456],[11.4621493,48.1973148],[11.4621533,48.197296]],[[11.5631669,48.2069787],[11.5632013,48.2069808],[11.5632881,48.2069859],[11.563307,48.206987]],[[11.5316127,48.1807053],[11.5316083,48.1807249],[11.5316019,48.1807525]],[[11.6174961,48.1122405],[11.6174859,48.1122372],[11.6174499,48.1122259]],[[11.6176519,48.1114371],[11.6176772,48.1114427],[11.6177358,48.1114553]],[[11.5089599,48.0987627],[11.5090075,48.0987485],[11.5090243,48.0987435]],[[11.6091611,48.1957314],[11.6091298,48.1957398],[11.6091139,48.195744]],[[11.6094173,48.1960364],[11.6094467,48.1960304],[11.6094841,48.1960227]],[[11.5576092,48.1214434],[11.5575988,48.1214513]],[[11.5389206,48.2039388],[11.5389032,48.2039204],[11.5388902,48.2039066]],[[11.6588926,48.1061921],[11.6588607,48.1061927],[11.6588429,48.1061931]],[[11.6592103,48.1064338],[11.6591905,48.1064335],[11.6591308,48.1064332]],[[11.5831661,48.1549774],[11.5831771,48.1549749],[11.5832256,48.1549643],[11.58327,48.1549544]],[[11.6447641,48.165292],[11.6447468,48.1652887],[11.6447098,48.1652817]],[[11.6446337,48.1651462],[11.6445767,48.1651364],[11.6445542,48.165133]],[[11.53441,48.1282427],[11.5343856,48.1282332],[11.5343719,48.1282279]],[[11.5345227,48.1284934],[11.5345071,48.1284868],[11.5344733,48.1284725]],[[11.5435485,48.1999306],[11.5435701,48.1999367],[11.5435929,48.1999431]],[[11.5728642,48.2043187],[11.5728256,48.2043187],[11.5728025,48.2043183]],[[11.5619075,48.1208458],[11.5619297,48.1208328],[11.5619354,48.1208294]],[[11.5612813,48.120504],[11.5612526,48.1205236],[11.5612482,48.1205266]],[[11.4542874,48.1481505],[11.4542576,48.1481596],[11.4542195,48.1481712]],[[11.4540509,48.1483348],[11.4540273,48.1483434],[11.4540066,48.1483509]],[[11.7026799,48.129736],[11.7027012,48.1297361],[11.7027674,48.1297365]],[[11.5486649,48.1230231],[11.5487129,48.1230215],[11.5487366,48.1230207]],[[11.5484961,48.1228839],[11.5484606,48.1228852],[11.5484466,48.1228857]],[[11.4532184,48.1359371],[11.4532329,48.1359315],[11.4532701,48.135917]],[[11.5600401,48.156385],[11.5600053,48.1563017],[11.5599815,48.1562443]],[[11.6055677,48.1481741],[11.6055565,48.1481796],[11.6055274,48.1481938]],[[11.605526,48.1483956],[11.605531,48.1483931],[11.6055616,48.1483778]],[[11.6288896,48.1536839],[11.6288864,48.1536646],[11.6288825,48.1536413]],[[11.6702903,48.1217438],[11.6702645,48.1217232],[11.6702794,48.1217148],[11.6704863,48.1215992],[11.6705079,48.1215872],[11.6705337,48.1216077],[11.6702903,48.1217438]],[[11.5514467,48.138969],[11.5514459,48.138976],[11.5514435,48.1389974]],[[11.5168705,48.134889],[11.5168696,48.1348746],[11.5168689,48.1348636]],[[11.5363893,48.1075589],[11.5363897,48.107553]],[[11.5332056,48.0951558],[11.5331715,48.0951627],[11.5331378,48.0951694]],[[11.5272484,48.0808816],[11.5272952,48.080876]],[[11.6062038,48.0920105],[11.6061824,48.0920076]],[[11.5493389,48.1121115],[11.5493363,48.1121223],[11.5493306,48.1121465]],[[11.5480805,48.1122269],[11.5480845,48.1122069],[11.5480896,48.1121817]],[[11.6139323,48.1914934],[11.6139863,48.1914791],[11.614032,48.1914671]],[[11.6164999,48.2112064],[11.6164873,48.2111829]],[[11.6164299,48.2112231],[11.6164173,48.2111998]],[[11.6164051,48.211229],[11.6164299,48.2112231],[11.6164694,48.2112136],[11.6164999,48.2112064],[11.6165239,48.2112006]],[[11.6162746,48.211259],[11.6162626,48.2112362]],[[11.6161987,48.2112775],[11.6161867,48.2112546]],[[11.6161869,48.2112803],[11.6161987,48.2112775],[11.6162273,48.2112705],[11.6162746,48.211259],[11.6163097,48.2112505]],[[11.5281782,48.1766032],[11.5281766,48.1765887],[11.5281759,48.1765728]],[[11.5293345,48.1769375],[11.5293083,48.1769377],[11.5292805,48.1769379]],[[11.529165,48.1760749],[11.529202,48.1760739],[11.5292145,48.1760735]],[[11.5290731,48.176704],[11.5290741,48.1766913]],[[11.529021,48.1767029],[11.5290731,48.176704],[11.5290962,48.1767045],[11.5291424,48.1767054]],[[11.5860948,48.162763],[11.5861886,48.162761],[11.5862038,48.1627605],[11.5862267,48.1627597]],[[11.5298891,48.182096],[11.5298951,48.1820205]],[[11.5298377,48.1820945],[11.5298891,48.182096]],[[11.529531,48.1821813],[11.529522,48.1821708]],[[11.529531,48.1821813],[11.5295758,48.182163]],[[11.5298173,48.1821232],[11.5297975,48.1820939],[11.5298377,48.1820945]],[[11.5269032,48.1164325],[11.5268982,48.1164421],[11.5268862,48.1164653]],[[11.6901858,48.1333127],[11.6901857,48.1333211],[11.6901847,48.1333629]],[[11.5467265,48.1010766],[11.546701,48.1010797],[11.5466602,48.1010846]],[[11.517458,48.1183609],[11.5175007,48.1183529],[11.5175394,48.1183459]],[[11.6543315,48.1089891],[11.6543325,48.1090121]],[[11.652756,48.0976339],[11.6527368,48.0976289]],[[11.5070121,48.1809445],[11.5070627,48.1809905],[11.5074598,48.1810054],[11.5075123,48.1809381]],[[11.5072353,48.180529],[11.5072444,48.1805248],[11.5072708,48.1805127]],[[11.5647812,48.1384112],[11.5647457,48.1384143],[11.5647387,48.138415]],[[11.4129401,48.1507043],[11.4129231,48.1507598],[11.4129048,48.1508161]],[[11.4129048,48.1508161],[11.4129197,48.1508183],[11.4130356,48.150833],[11.4131688,48.15085]],[[11.4065011,48.1519942],[11.4065095,48.1519659],[11.4068983,48.1520174],[11.4068899,48.1520457],[11.4065011,48.1519942]],[[11.4064787,48.1520779],[11.4064871,48.1520497],[11.4068759,48.1521012],[11.4068675,48.1521294],[11.4064787,48.1520779]],[[11.5612199,48.139272],[11.561087,48.1392724]],[[11.5610692,48.1404662],[11.5610736,48.1404211]],[[11.5611521,48.1404616],[11.5612151,48.140458]],[[11.5609563,48.1401762],[11.5609932,48.1404704],[11.5610692,48.1404662],[11.5611521,48.1404616]],[[11.5615908,48.1410187],[11.5614843,48.1410382],[11.5613751,48.1410582]],[[11.5605878,48.1413302],[11.5605656,48.1413296]],[[11.5609875,48.1398032],[11.5610203,48.1400356],[11.561026,48.1400758]],[[11.5593201,48.1413631],[11.5593769,48.1414823]],[[11.5594343,48.1411621],[11.5594837,48.1411672]],[[11.5743083,48.1816189],[11.5743103,48.1816334]],[[11.6792145,48.1444016],[11.6791244,48.1443897]],[[11.4034773,48.1418223],[11.4034413,48.1419273],[11.4033675,48.1420248]],[[11.4031049,48.1419866],[11.4032416,48.1420065],[11.4033675,48.1420248]],[[11.4031709,48.1417788],[11.403334,48.1418011],[11.4034773,48.1418223]],[[11.5755868,48.1384713],[11.5755489,48.1384788]],[[11.5753082,48.1374303],[11.5752866,48.1373821]],[[11.5754249,48.1371124],[11.5754017,48.1370657]],[[11.5754017,48.1370657],[11.5753581,48.1370753]],[[11.5023816,48.1446268],[11.5026801,48.1445931]],[[11.567723,48.132842],[11.567956,48.1328623],[11.5679778,48.1328642]],[[11.408142,48.1420105],[11.4081843,48.1420215],[11.4080683,48.1422187],[11.408026,48.1422077],[11.4080605,48.142149],[11.408142,48.1420105]],[[11.4082146,48.1421972],[11.4082573,48.1422087],[11.4081444,48.1424031],[11.4081006,48.1423925],[11.4082146,48.1421972]],[[11.5572812,48.1417607],[11.5572772,48.1417208]],[[11.6701641,48.1219652],[11.6701466,48.1219508]],[[11.6703874,48.1218447],[11.6703656,48.1218293]],[[11.6704737,48.1215902],[11.6704863,48.1215992]],[[11.6702684,48.1217065],[11.6702794,48.1217148]],[[11.5835408,48.135593],[11.5836036,48.1355622]],[[11.5543062,48.1111241],[11.5543289,48.1111163]],[[11.5501348,48.1219398],[11.5500807,48.1219372]],[[11.5398435,48.1705425],[11.5396257,48.1705237],[11.5396217,48.1705445],[11.5398395,48.1705633],[11.5398413,48.1705538],[11.5398435,48.1705425]],[[11.5395524,48.1704614],[11.5397681,48.1704883],[11.5397716,48.1704757],[11.5397752,48.170463],[11.5395595,48.1704361],[11.5395551,48.1704492],[11.5395524,48.1704614]],[[11.5677147,48.1328665],[11.5679148,48.1329198]],[[11.5679778,48.1328642],[11.5681456,48.132879]],[[11.584002,48.1108882],[11.5840127,48.1109071]],[[11.5053173,48.180523],[11.5054995,48.1804631],[11.5054853,48.1804438],[11.5054735,48.1804279],[11.5052913,48.1804879],[11.5053022,48.1805026],[11.5053173,48.180523]],[[11.6293086,48.1545807],[11.6292395,48.1545847]],[[11.6853504,48.1409434],[11.685408,48.1408649],[11.6854641,48.1407864]],[[11.6067579,48.1276354],[11.6069157,48.127741]],[[11.6073507,48.1274957],[11.6071834,48.1276091]],[[11.4649318,48.1491224],[11.4638273,48.1495161],[11.4633375,48.1496768],[11.4628453,48.1498389],[11.4625722,48.1499215],[11.4619947,48.1500947],[11.4616078,48.1502106],[11.4614275,48.150265],[11.4599542,48.1507066]],[[11.4600069,48.1507853],[11.4614775,48.1503402],[11.4616595,48.1502844],[11.4620435,48.1501677],[11.4626186,48.149991],[11.4628033,48.1499326],[11.4628904,48.1499006],[11.4638514,48.1495513],[11.4649468,48.149146]],[[11.5724215,48.1427364],[11.5722704,48.1426881],[11.5722834,48.1426723],[11.5724312,48.1427198],[11.5724215,48.1427364]],[[11.5727761,48.142056],[11.5726098,48.1420119],[11.5726275,48.1419876],[11.5727886,48.1420309],[11.5727761,48.142056]],[[11.6328888,48.1332026],[11.6328377,48.1332109]],[[11.5535488,48.1211788],[11.5534731,48.1211967]],[[11.5370501,48.090207],[11.537039,48.0901891]],[[11.53713,48.0895712],[11.5371495,48.0895692]],[[11.5379826,48.090184],[11.5379617,48.0901935]],[[11.4677302,48.1125409],[11.4677104,48.1126413]],[[11.6861609,48.1321488],[11.6864987,48.1321497],[11.6869889,48.13215]],[[11.4593403,48.1463746],[11.4592929,48.1463822]],[[11.459015,48.1461809],[11.4590602,48.1461764]],[[11.5797542,48.1150417],[11.5797245,48.1150488]],[[11.5548148,48.1399523],[11.55481,48.1399208],[11.5548236,48.1397825],[11.5548288,48.1397048],[11.5547936,48.1396014],[11.5548098,48.1395591]],[[11.5537478,48.1106006],[11.5537247,48.1106074]],[[11.5478748,48.1615021],[11.5477462,48.1604601],[11.5476763,48.1604209]],[[11.4942411,48.1441416],[11.4942943,48.1443641],[11.494301,48.1443921],[11.4944909,48.1443719],[11.4944811,48.1443307]],[[11.4942943,48.1443641],[11.4942271,48.1443705],[11.4942242,48.144357]]]}}]}