{"type":"FeatureCollection","features":[{"type":"Feature","properties":{},"geometry":{"type":"MultiPoint","coordinates":[[11.4073885,48.1765575],[11.4145022,48.1571052],[11.6244062,48.1360541],[11.5795937,48.1375977],[11.5790801,48.137075],[11.5661367,48.1754457],[11.5416774,48.1451825],[11.5185549,48.1209147],[11.4615961,48.2111377],[11.5431079,48.2005889],[11.5549805,48.0868612],[11.6404773,48.0980016],[11.5380562,48.0986288],[11.528051,48.1725599],[11.6282593,48.0937078],[11.6242009,48.1359529],[11.5351297,48.0957924],[11.6378335,48.1102096],[11.6955249,48.1295205],[11.6129589,48.1246989],[11.6295066,48.1188454],[11.6546526,48.109068],[11.6527659,48.097399],[11.5339325,48.1106815],[11.5342816,48.1104418],[11.5351584,48.1217196],[11.516668,48.1134],[11.5186495,48.1209029],[11.6263461,48.1513166],[11.6130993,48.1247758],[11.613084,48.1246281],[11.6132409,48.1246217],[11.6132602,48.1247684],[11.5937987,48.1287417],[11.5937296,48.1286397],[11.6461861,48.109175],[11.6466706,48.109165],[11.6496098,48.1091764],[11.6496114,48.1090795],[11.6501665,48.1091731],[11.6501649,48.1090755],[11.6466679,48.1090713],[11.6461881,48.1090791],[11.6471506,48.0985416],[11.6473263,48.0984049],[11.538196,48.1654205],[11.5810578,48.1670952],[11.5668988,48.1814364],[11.5476359,48.1355915],[11.545499,48.134645],[11.6652046,48.1211018],[11.56551,48.1397972],[11.5665336,48.1333132],[11.5844408,48.1380801],[11.5818195,48.1522926],[11.5815025,48.1513509],[11.578705,48.1453929],[11.5823695,48.1521918],[11.5904051,48.1665706],[11.6041297,48.179372],[11.6155464,48.1987552],[11.6197579,48.1973766],[11.6209494,48.1966345],[11.615489,48.1990445],[11.5351262,48.0957305],[11.4477328,48.1824466],[11.4478875,48.1824952],[11.6651733,48.1213655],[11.5500565,48.0768497],[11.6523566,48.0978452],[11.5578853,48.1762948],[11.6648791,48.1215141],[11.6674672,48.1206254],[11.6543012,48.1249775],[11.6540126,48.1246994],[11.6673628,48.1203665],[11.6646179,48.1214739],[11.6645055,48.1213947],[11.5765365,48.1206315],[11.5201004,48.1465385],[11.647571,48.0986284],[11.6481199,48.0985758],[11.4857928,48.1204647],[11.5604457,48.1742503],[11.5587762,48.176289],[11.5495195,48.1608085],[11.6648075,48.1212994],[11.6649194,48.1213761],[11.5669966,48.1008971],[11.5787749,48.1842286],[11.5116132,48.1545991],[11.5110466,48.154517],[11.6037372,48.1795852],[11.6133914,48.1246779],[11.5376977,48.1657171],[11.5380778,48.1653921],[11.5377506,48.1664632],[11.5373182,48.1668086],[11.4840413,48.0834093],[11.6339624,48.1361669],[11.5381494,48.1660315],[11.6480547,48.0984784],[11.5375764,48.1664088],[11.5382203,48.1657585],[11.5281856,48.1726781],[11.5283971,48.1726864],[11.5281777,48.1724076],[11.5284914,48.1725302],[11.5283441,48.1724061],[11.6050562,48.1330497],[11.6050361,48.133216],[11.6020397,48.1337946],[11.5566066,48.1864892],[11.5726583,48.187666],[11.5788256,48.1452336],[11.5613085,48.1394056],[11.5815513,48.1512076],[11.5342471,48.1106945],[11.5201362,48.1476612],[11.5726769,48.1873663],[11.5728663,48.1874575],[11.5728591,48.1875621],[11.5724608,48.1875449],[11.5724714,48.1874402],[11.6199925,48.1373911],[11.6199653,48.1374725],[11.5786582,48.1453064],[11.584809,48.1151986],[11.6238749,48.1954324],[11.6706898,48.1195736],[11.6708226,48.1197765],[11.6762905,48.1196173],[11.6773866,48.1193186],[11.6402066,48.1623259],[11.650778,48.1295121],[11.6393062,48.109253],[11.6463305,48.1089719],[11.646514,48.1089733],[11.6497638,48.1089686],[11.6500083,48.1089661],[11.6465298,48.1092797],[11.646335,48.1092816],[11.6500138,48.1092768],[11.6497862,48.1092764],[11.5343255,48.1377252],[11.5341338,48.1103352],[11.5168831,48.1178851],[11.4117132,48.1410198],[11.533807,48.1350039],[11.534226,48.1349727],[11.5788997,48.1453957],[11.5185354,48.1414325],[11.5184894,48.1412951],[11.5186155,48.1412089],[11.5187808,48.1411902],[11.5699573,48.0933789],[11.5700234,48.0934176],[11.5702464,48.0932287],[11.5884965,48.100411],[11.5584692,48.1502578],[11.5580572,48.1510091],[11.5580015,48.1502464],[11.5699535,48.0932377],[11.570327,48.0933298],[11.5702728,48.0933924],[11.5187548,48.1296554],[11.4901474,48.129806],[11.5927096,48.1149034],[11.5926766,48.1149902],[11.6585246,48.1011726],[11.6584847,48.101085],[11.6475168,48.098537],[11.6539167,48.1249169],[11.6538892,48.1248255],[11.6538556,48.1247299],[11.654252,48.1247529],[11.6543479,48.124833],[11.507491,48.1171524],[11.5380275,48.1397297],[11.5132228,48.1538692],[11.5115782,48.154265],[11.5116642,48.1544272],[11.6089515,48.1949491],[11.7050494,48.1123941],[11.5567853,48.1435275],[11.5569805,48.1438606],[11.5664526,48.1643327],[11.6334679,48.1361496],[11.574605,48.1456637],[11.5383642,48.1651425],[11.6133427,48.1247643],[11.6037852,48.179422],[11.6039044,48.1793597],[11.6039922,48.1796096],[11.6041167,48.1795425],[11.5665609,48.1757872],[11.5304666,48.1711966],[11.5306353,48.1713083],[11.5690853,48.1588118],[11.6017643,48.1336466],[11.5783908,48.1759744],[11.6586706,48.1008473],[11.6585368,48.1009017],[11.6546528,48.1091645],[11.5569531,48.1434869],[11.5580904,48.1503398],[11.558334,48.1503725],[11.5567084,48.1436906],[11.5615431,48.1469823],[11.5567888,48.1437963],[11.5571519,48.1438062],[11.5614165,48.1467744],[11.5578554,48.1507934],[11.5583776,48.1501376],[11.5581631,48.1501433],[11.5580585,48.1508802],[11.5578844,48.1510513],[11.5604454,48.157873],[11.5330565,48.169798],[11.5328915,48.1699062],[11.532872,48.1696688],[11.5327037,48.1696962],[11.60513,48.1355452],[11.5692118,48.1588744],[11.5690758,48.1590059],[11.5689454,48.158926],[11.5684623,48.156738],[11.5687237,48.1567129],[11.5608341,48.1395141],[11.5560729,48.1391438],[11.5588547,48.1393227],[11.6033581,48.1796776],[11.5830936,48.1608761],[11.528755,48.2088616],[11.5150116,48.1790237],[11.5607861,48.1410489],[11.5608106,48.141297],[11.634684,48.1692642],[11.5532542,48.137427],[11.5613789,48.1410004],[11.5948076,48.1233775],[11.59497,48.1234672],[11.5947179,48.1232651],[11.5721246,48.1974103],[11.6335879,48.1079981],[11.573318,48.137602],[11.5732908,48.1375473],[11.6394725,48.1091799],[11.6391328,48.1090785],[11.6391292,48.10918],[11.6394727,48.1090781],[11.5666802,48.1331289],[11.5665642,48.1333244],[11.566523,48.1334047],[11.5649914,48.1393277],[11.561295,48.1408438],[11.5588553,48.1391877],[11.4560429,48.1503246],[11.6506862,48.1294286],[11.627965,48.1312301],[11.6071527,48.1271768],[11.6281291,48.1313168],[11.5940433,48.1286395],[11.5938777,48.1287483],[11.5938257,48.1284773],[11.5112428,48.1613162],[11.5068677,48.1636132],[11.5071347,48.1638317],[11.5070043,48.1638884],[11.5065177,48.1640631],[11.5024488,48.1200568],[11.5814426,48.2108939],[11.6241419,48.1955222],[11.5615901,48.1468507],[11.5613501,48.1469176],[11.4571765,48.1425419],[11.4626354,48.1973863],[11.5560573,48.1392203],[11.5340565,48.1107916],[11.5247379,48.1108012],[11.581511,48.1626591],[11.6087203,48.195001],[11.4116311,48.1412655],[11.5728643,48.1845837],[11.5375602,48.1661743],[11.5375692,48.1663052],[11.5686644,48.1412077],[11.5559476,48.1392616],[11.5859472,48.1319683],[11.5670566,48.1754634],[11.5029323,48.0872787],[11.5030687,48.0873343],[11.5032063,48.087522],[11.5029246,48.0875443],[11.5030624,48.0875948],[11.5687331,48.1612086],[11.5023791,48.1090506],[11.6478259,48.098405],[11.6475947,48.0984403],[11.6480405,48.098692],[11.6477915,48.098701],[11.4627257,48.1635113],[11.4774586,48.1154965],[11.4955228,48.112019],[11.5752076,48.1430986],[11.5685518,48.1611943],[11.4161176,48.1565736],[11.5873074,48.2105583],[11.5871169,48.210576],[11.6156856,48.1990006],[11.6157497,48.1989858],[11.6157603,48.1987901],[11.6158252,48.1988746],[11.6155349,48.1989536],[11.6154484,48.1988658],[11.5532659,48.1837106],[11.6196189,48.197431],[11.6198505,48.1973153],[11.6211793,48.1966236],[11.4588846,48.1501155],[11.5610276,48.1408853],[11.5610467,48.1408865],[11.5611552,48.1392547],[11.5891914,48.1374374],[11.5588551,48.1392684],[11.5588551,48.1392455],[11.5189222,48.1412294],[11.4884319,48.1408838],[11.488484,48.1410105],[11.5170734,48.1350813],[11.515706,48.0652494],[11.5156335,48.0653594],[11.511911,48.1273053],[11.5170668,48.1349108],[11.5170707,48.13501],[11.6338196,48.1362835],[11.5833492,48.1330771],[11.5538484,48.1335548],[11.5572215,48.1435438],[11.5572666,48.1436042],[11.5172386,48.1178775],[11.459612,48.1488786],[11.4599902,48.1489814],[11.4599418,48.1491529],[11.4594189,48.1491695],[11.4595829,48.1492757],[11.4590836,48.1492832],[11.4592292,48.149388],[11.4588644,48.1495109],[11.593899,48.1288853],[11.5547068,48.0869333],[11.5548195,48.0869762],[11.5547321,48.0867995],[11.5613117,48.1411783],[11.5885861,48.1395289],[11.4616789,48.1466997],[11.4604623,48.148828],[11.6478515,48.098439],[11.56115,48.1395192],[11.4434814,48.1765912],[11.4433037,48.177034],[11.4731639,48.1415568],[11.473337,48.1416965],[11.4961888,48.1194152],[11.4963887,48.1195794],[11.4835306,48.1144502],[11.4828924,48.114656],[11.4829656,48.1147225],[11.6050745,48.1323202],[11.6050428,48.1332775],[11.5549618,48.0868183],[11.6292116,48.1181405],[11.6851913,48.1353674],[11.5171998,48.1177781],[11.6200912,48.1372319],[11.6204206,48.1371319],[11.6241477,48.1357837],[11.5558129,48.1392145],[11.6341184,48.1360179],[11.6341169,48.1360676],[11.685408,48.1408649],[11.539122,48.1703359],[11.555829,48.139143],[11.5602464,48.1742774],[11.6711018,48.1215785],[11.6087947,48.1949126],[11.6088632,48.1950448],[11.6803043,48.0831639],[11.6803127,48.0832509],[11.6319207,48.1760401],[11.5168121,48.1135222],[11.4114716,48.1411061],[11.4117655,48.1411418],[11.554825,48.0867808],[11.4572187,48.1426678],[11.5743239,48.1748201],[11.5686939,48.1325403],[11.6266079,48.1992201],[11.5200049,48.1097561],[11.5194926,48.1098866],[11.5166659,48.1131852],[11.5931687,48.1228456],[11.5607588,48.1392649],[11.5607212,48.1394063],[11.5624799,48.1392879],[11.5171102,48.1131143],[11.5168365,48.1131059],[11.5339746,48.1104155],[11.4606777,48.1465971],[11.5170718,48.1350451],[11.586557,48.1623436],[11.5865821,48.1623859],[11.5866142,48.1624402],[11.6051321,48.1356836],[11.5149344,48.1791403],[11.5153146,48.1791684],[11.5612982,48.1411842],[11.5611145,48.1412668],[11.5610948,48.1412762],[11.5607479,48.1412394],[11.5837637,48.1341142],[11.6049156,48.1331326],[11.6851852,48.1355511],[11.5570773,48.161539],[11.5570758,48.161339],[11.5803328,48.1490427],[11.4600174,48.1488399],[11.4646692,48.1463835],[11.6237948,48.1359125],[11.5604135,48.1741033],[11.5181993,48.1111668],[11.5372243,48.134931],[11.5372314,48.1349858],[11.5173535,48.1132009],[11.5398852,48.1071854],[11.5400694,48.1071912],[11.5649759,48.107698],[11.5648946,48.1077287],[11.5821463,48.1520943],[11.5819175,48.1521481],[11.5198501,48.0878699],[11.5197408,48.0878927],[11.4635868,48.1354055],[11.475387,48.1259039],[11.4632865,48.1355058],[11.4582085,48.1439798],[11.4579454,48.1437983],[11.5170738,48.1135235],[11.5170084,48.1178127],[11.5680892,48.1543584],[11.5180309,48.1108641],[11.6264265,48.1991302],[11.5346119,48.1377485],[11.6850188,48.1354624],[11.6853214,48.1354631],[11.6892372,48.1333875],[11.6892347,48.1334719],[11.3889188,48.1338174],[11.3890317,48.133859],[11.3892861,48.1343528],[11.5196764,48.1098637],[11.5197616,48.1099171],[11.5179782,48.1108983],[11.6242512,48.1359488],[11.5181747,48.1107642],[11.5196282,48.1100501],[11.5195328,48.110147],[11.5170562,48.0691073],[11.5170515,48.1179183],[11.5570016,48.1641704],[11.633309,48.1354684],[11.5729676,48.199219],[11.5730375,48.1993537],[11.6640214,48.1085215],[11.6640261,48.1086741],[11.5817461,48.1753232],[11.5203085,48.1466626],[11.5202875,48.1464004],[11.5179962,48.1110661],[11.5680833,48.1326907],[11.568082,48.1326176],[11.5682798,48.1325151],[11.6618116,48.0863789],[11.6618992,48.0864896],[11.4104879,48.1449919],[11.5661412,48.1643519],[11.4104228,48.1454963],[11.5640384,48.201551],[11.4040819,48.1400287],[11.6051863,48.1331271],[11.5560699,48.1243913],[11.5677865,48.1642385],[11.5459938,48.1714681],[11.5464391,48.1712937],[11.5368844,48.1799898],[11.5790562,48.1547027],[11.570108,48.1508511],[11.6245369,48.1358472],[11.5542778,48.1230645],[11.5558951,48.1244872],[11.518493,48.1208298],[11.517106,48.1178421],[11.5182908,48.1210407],[11.5185921,48.1209902],[11.5202185,48.1499059],[11.5567737,48.1863313],[11.5567636,48.1864404],[11.5685697,48.1566269],[11.5686237,48.1568121],[11.6708773,48.1215089],[11.5901673,48.1223743],[11.5887524,48.1221806],[11.4746651,48.1502132],[11.403334,48.1418011],[11.6169119,48.1246719],[11.5858027,48.1926848],[11.5858126,48.1926185],[11.6768859,48.1193078],[11.6675275,48.1204052],[11.6675519,48.1205027],[11.6672822,48.1204855],[11.6673125,48.1205805],[11.5182525,48.1107097],[11.6588178,48.1009267],[11.6588589,48.1010272],[11.554425,48.1229392],[11.5816571,48.1511873],[11.6275636,48.1901811],[11.6270499,48.1903769],[11.6274295,48.1900154],[11.5681448,48.1338438],[11.5478569,48.1356231],[11.6050653,48.1988861],[11.5173443,48.1177978],[11.5525967,48.1238274],[11.5027238,48.0873365],[11.5079084,48.0943501],[11.5074029,48.0943353],[11.5748343,48.1342239],[11.5672043,48.1101685],[11.5671186,48.1102119],[11.5072282,48.1171008],[11.4419868,48.1492116],[11.4077699,48.1429768],[11.4077595,48.1426939],[11.407569,48.1424102],[11.4048187,48.1494048],[11.4050341,48.14955],[11.4760921,48.1501497],[11.4806718,48.1515892],[11.41568,48.1567632],[11.4157243,48.1568401],[11.5790812,48.1547628],[11.6019913,48.133803],[11.4962719,48.0954659],[11.5834859,48.1356197],[11.6095519,48.1963891],[11.3807416,48.1792742],[11.5382394,48.1397579],[11.5379564,48.1397328],[11.5383056,48.1398626],[11.5382873,48.1397545],[11.5379813,48.1397752],[11.5380009,48.1398813],[11.5182099,48.1209429],[11.5950906,48.1232984],[11.6240238,48.1953265],[11.6306092,48.0911015],[11.6132953,48.1246204],[11.6133905,48.1246503],[11.613394,48.1247151],[11.6155721,48.1308372],[11.6157497,48.1308102],[11.6156501,48.1311118],[11.6159016,48.1310734],[11.4108944,48.1406503],[11.6404642,48.0979777],[11.640494,48.0980321],[11.4626097,48.1975062],[11.6818497,48.1354371],[11.6017451,48.1337621],[11.5883105,48.1373638],[11.5113134,48.154599],[11.5581276,48.1759517],[11.668405,48.1228809],[11.553515,48.1375145],[11.6711061,48.1213502],[11.6710358,48.1213494],[11.6712457,48.1214515],[11.511661,48.1554275],[11.5733409,48.1724063],[11.5731674,48.1723901],[11.5666589,48.1751627],[11.6711671,48.1215698],[11.6695571,48.1222037],[11.5558535,48.1244083],[11.5559629,48.1243497],[11.5560208,48.1243506],[11.5561359,48.1244462],[11.556126,48.1244902],[11.5560184,48.124548],[11.555902,48.1243823],[11.5560685,48.1245211],[11.5558582,48.1244558],[11.5559335,48.1245185],[11.4505659,48.1423455],[11.5687397,48.1567443],[11.5684739,48.1567672],[11.5684562,48.1567111],[11.5687078,48.1566763],[11.5714442,48.18182],[11.6733847,48.110718],[11.5172566,48.1134311],[11.4065407,48.1448938],[11.4066074,48.1449091],[11.5812837,48.1959727],[11.5498145,48.1605655],[11.4649086,48.1131835],[11.5501164,48.0768368],[11.5500107,48.0768598],[11.5280107,48.1725245],[11.5280827,48.1725877],[11.5281062,48.1726084],[11.5281485,48.1726454],[11.5281684,48.172663],[11.5282423,48.1727279],[11.5532014,48.1553982],[11.5532392,48.1554186],[11.5532943,48.1614156],[11.6234101,48.1536918],[11.6234128,48.1537741],[11.6234136,48.1537965],[11.6181407,48.1536665],[11.61813,48.15352],[11.5328409,48.169647],[11.5330937,48.169824],[11.5329915,48.1697525],[11.5330147,48.1697687],[11.5329306,48.1697098],[11.5329085,48.1696944],[11.6291738,48.1534722],[11.6292191,48.1536237],[11.6292105,48.1535683],[11.6292062,48.1535397],[11.6292019,48.1534833],[11.6291993,48.1534555],[11.6291913,48.1533705],[11.5516039,48.0802609],[11.6093403,48.1507965],[11.6094578,48.1508224],[11.6094913,48.1508294],[11.6092123,48.1510249],[11.6092384,48.1509646],[11.6092464,48.1509459],[11.6083649,48.1508658],[11.6092985,48.1508237],[11.5536919,48.1543563],[11.517063,48.1348135],[11.5170714,48.1350335],[11.5170694,48.1349771],[11.5170687,48.1349605],[11.5170656,48.1348804],[11.5170648,48.1348594],[11.5698346,48.1042968],[11.5927298,48.1148506],[11.5926966,48.1149388],[11.5926892,48.1149586],[11.5926561,48.1150386],[11.4887186,48.1406544],[11.4884991,48.1410485],[11.4884789,48.1409987],[11.488468,48.1409726],[11.4884496,48.1409273],[11.4884404,48.1409047],[11.4884188,48.1408516],[11.566502,48.1008193],[11.5668292,48.1007413],[11.5204817,48.149941],[11.6037449,48.179443],[11.6039229,48.1796434],[11.603787,48.1796289],[11.6036871,48.1795413],[11.5864154,48.1612966],[11.5003783,48.1396787],[11.4749681,48.1505155],[11.4748878,48.1505181],[11.4746284,48.1502543],[11.4752041,48.1502949],[11.4751836,48.1502391],[11.6648017,48.1020022],[11.467102,48.189739],[11.5591373,48.1467494],[11.5142713,48.1349793],[11.548159,48.143817],[11.6816121,48.1353308],[11.619808,48.1380961],[11.5221544,48.1345958],[11.494195,48.1205956],[11.5900223,48.1664969],[11.4032416,48.1420065],[11.4034413,48.1419273],[11.5669161,48.1334451],[11.4091219,48.1409097],[11.4082371,48.1420551],[11.5548156,48.0870768],[11.506817,48.1638996],[11.5066996,48.1637231],[11.5067062,48.1640725],[11.5700274,48.0932758],[11.5700207,48.0933581],[11.5700656,48.0933805],[11.5978585,48.2010663],[11.6815151,48.1354509],[11.6817592,48.1355704],[11.5892451,48.1006826],[11.5891941,48.1007741],[11.572188,48.1789845],[11.6055097,48.1356058],[11.6054946,48.1356839],[11.5381963,48.1399241],[11.5383713,48.1399112],[11.5391594,48.139654],[11.5733969,48.172638],[11.4624357,48.1974201],[11.4628117,48.197464],[11.5338704,48.2174571],[11.536809,48.2170012],[11.4080471,48.1423785],[11.5981565,48.1982706],[11.598106,48.1982716],[11.540405,48.213388],[11.5970257,48.1150796],[11.5970286,48.1149976],[11.5740103,48.1702644],[11.5740101,48.1702601],[11.6020367,48.1336618],[11.6017711,48.1337881],[11.6017139,48.1337347],[11.6019336,48.1338147],[11.6019946,48.1336362],[11.6020771,48.1336868],[11.6017271,48.1336539],[11.601803,48.1336379],[11.5750743,48.1702319],[11.5750556,48.1701349],[11.5853691,48.1294588],[11.6038084,48.1963535],[11.6038867,48.1965098],[11.6037526,48.1964622],[11.5745518,48.1455381],[11.5745797,48.1456072],[11.5496442,48.1605715],[11.5494919,48.1606944],[11.53715,48.135022],[11.5813365,48.1670978],[11.4746848,48.1501912],[11.4746134,48.150271],[11.4746569,48.1502227],[11.4746413,48.1502398],[11.4749947,48.1505146],[11.4748543,48.1505192],[11.4752086,48.1503071],[11.4751953,48.1502718],[11.4751883,48.1502518],[11.4751754,48.1502169],[11.4749386,48.1505165],[11.4749057,48.1505177],[11.4752122,48.1509738],[11.5876704,48.1315847],[11.6244881,48.1358877],[11.6224679,48.1009471],[11.5703209,48.131697],[11.5113411,48.1615556],[11.5111356,48.1614668],[11.5496613,48.1607855],[11.5498124,48.1606629],[11.6736128,48.1111912],[11.6737153,48.1112757],[11.5812884,48.1960088],[11.5812776,48.1959263],[11.5816,48.1959069],[11.5816087,48.1959886],[11.5816048,48.1959516],[11.666627,48.1240453],[11.6668708,48.1239144],[11.6667846,48.1240632],[11.4049229,48.143336],[11.6244076,48.1361211],[11.5405175,48.1367034],[11.5375028,48.1371584],[11.537581,48.1370847],[11.5384604,48.1358796],[11.5383493,48.1358896],[11.5385148,48.1357616],[11.5385017,48.135839],[11.5382928,48.13579],[11.5382831,48.1358125],[11.5382878,48.1358547],[11.5385137,48.1357927],[11.5383722,48.1348012],[11.5384049,48.1348143],[11.5384362,48.134908],[11.5383936,48.1349306],[11.5382054,48.134938],[11.5381833,48.134922],[11.5381702,48.1348262],[11.5382034,48.1348099],[11.538493,48.1357397],[11.5383375,48.1357513],[11.5383016,48.1349353],[11.5384234,48.1348695],[11.5339808,48.135118],[11.5341127,48.1351036],[11.5340265,48.1351131],[11.5342375,48.135029],[11.5342195,48.1349416],[11.5340785,48.1349232],[11.5339391,48.1349335],[11.5338134,48.1350279],[11.5337977,48.1349704],[11.5339811,48.1349304],[11.5353947,48.1349483],[11.5352185,48.1348298],[11.5353512,48.1348171],[11.5353706,48.1348272],[11.5371401,48.1348766],[11.536978,48.1349753],[11.5370711,48.1350277],[11.5372215,48.1349092],[11.5328573,48.1248886],[11.5330942,48.1248074],[11.5384096,48.1444885],[11.5781501,48.1844871],[11.5728515,48.1133823],[11.5743183,48.116134],[11.5749134,48.1174124],[11.5750013,48.1173849],[11.5747898,48.117755],[11.5755013,48.1172504],[11.5755736,48.1170332],[11.5751697,48.1172093],[11.5761991,48.1166978],[11.5682982,48.1158898],[11.5701222,48.1148846],[11.5700033,48.114806],[11.5701181,48.1147553],[11.570244,48.1148073],[11.566827,48.1153975],[11.5186517,48.1296567],[11.5187618,48.129577],[11.5204929,48.1280797]]}}]}